{"version": 0.6, "generator": "Overpass API 0.7.62.8 e802775f", "osm3s": {"timestamp_osm_base": "2025-12-07T06:12:58Z", "copyright": "The data included in this document is from www.openstreetmap.org. The data is made available under ODbL."}, "elements": [{"type": "node", "id": 254723887, "lat": 45.6459222, "lon": 25.5938069, "tags": {"addr:city": "Bra\u0219ov", "artwork_type": "statue", "name": "Statuie Nicolae Titulescu", "tourism": "artwork"}}, {"type": "node", "id": 264551293, "lat": 45.6458403, "lon": 25.5990492, "tags": {"addr:city": "Bra\u0219ov", "artwork_type": "statue", "name": "Andrei Mure\u0219anu", "tourism": "artwork"}}, {"type": "node", "id": 465488628, "lat": 45.6476882, "lon": 25.5962703, "tags": {"addr:city": "Bra\u0219ov", "addr:housename": "3A", "addr:housenumber": "3A", "addr:postcode": "500084", "addr:street": "Strada Maior Cran\u021b\u0103", "amenity": "restaurant", "check_date": "2024-10-02", "cuisine": "regional", "description": "CASA CRANTA:\"UN PETIT CHATEAU\" (ARHITECT SMIGELSCHI VICTOR) ESTE O CREATIE A ANILOR 1930 IN STIL BRANCOVENESC, CU O PANORAMA DE EXCEPTIE SPRE TAMPA SI CENTRUL ISTOIC. HOTELUL ARE APARTAMENTE DE LUX , PROTOCOL SI CAMERE CU DOTARI ULTRA MODERNE: BAI CU JAC", "email": "contact@casacranta.ro", "internet_access": "wlan", "name": "Casa Cran\u021ba", "opening_hours": "24/7", "phone": "+40268-476 992, +40740-117 812", "stars": "4", "tourism": "hotel", "website": "https://www.casacranta.ro/"}}, {"type": "node", "id": 506463582, "lat": 45.6455094, "lon": 25.5963702, "tags": {"historic": "memorial", "memorial": "statue", "name": "Troi\u021b\u0103"}}, {"type": "node", "id": 1206977699, "lat": 45.6500008, "lon": 25.6038664, "tags": {"addr:city": "Bra\u0219ov", "addr:housenumber": "56", "addr:postcode": "500091", "addr:postcode:source": "Date de la Po\u0219ta Rom\u00e2n\u0103, publicate sub Licen\u021ba pentru Guvernare Deschis\u0103 v1.0 la http://date.gov.ro/organization/posta-romana", "addr:street": "Strada Iuliu Maniu", "amenity": "restaurant", "cuisine": "regional", "email": "restaurantceasurau@sergiana.ro", "name": "Ceasu' R\u0103u", "opening_hours": "Mo-Su 11:00-23:30", "outdoor_seating": "terrace", "phone": "+40 723 297 993;+40 268 476 670", "smoking": "outside", "website": "https://www.sergiana.ro/restaurants/ceasu-rau-restaurant"}}, {"type": "node", "id": 2776615306, "lat": 45.6515282, "lon": 25.6028806}, {"type": "node", "id": 2776615311, "lat": 45.6515293, "lon": 25.6028836}, {"type": "node", "id": 2776615338, "lat": 45.6515386, "lon": 25.6029085, "tags": {"source": "http://www.pug-puz.ro/ ; legea544/2001"}}, {"type": "node", "id": 2776615372, "lat": 45.651568, "lon": 25.6029807, "tags": {"source": "http://www.pug-puz.ro/ ; legea544/2001"}}, {"type": "node", "id": 2776615398, "lat": 45.6516002, "lon": 25.602953}, {"type": "node", "id": 2776615466, "lat": 45.6516263, "lon": 25.6031065}, {"type": "node", "id": 2776615473, "lat": 45.651631, "lon": 25.6027965}, {"type": "node", "id": 2776615484, "lat": 45.6516366, "lon": 25.6027797}, {"type": "node", "id": 2776615489, "lat": 45.6516375, "lon": 25.6031025}, {"type": "node", "id": 2776615493, "lat": 45.6516397, "lon": 25.6031175}, {"type": "node", "id": 2776615557, "lat": 45.6516757, "lon": 25.6028185}, {"type": "node", "id": 2776615566, "lat": 45.6516797, "lon": 25.6029449}, {"type": "node", "id": 2776615568, "lat": 45.6516808, "lon": 25.6028056}, {"type": "node", "id": 2776615582, "lat": 45.6516919, "lon": 25.6030819}, {"type": "node", "id": 2776615594, "lat": 45.6516939, "lon": 25.6031}, {"type": "node", "id": 2776615595, "lat": 45.6516949, "lon": 25.6029407}, {"type": "node", "id": 2776615600, "lat": 45.6517013, "lon": 25.6030784}, {"type": "node", "id": 2776617874, "lat": 45.6545538, "lon": 25.6035045, "tags": {"source": "http://www.pug-puz.ro/ ; legea544/2001"}}, {"type": "node", "id": 2776617922, "lat": 45.6545694, "lon": 25.6034204, "tags": {"source": "http://www.pug-puz.ro/ ; legea544/2001"}}, {"type": "node", "id": 2777621458, "lat": 45.650103, "lon": 25.5966529, "tags": {"source": "http://www.pug-puz.ro/ ; legea544/2001"}}, {"type": "node", "id": 2777621625, "lat": 45.6501419, "lon": 25.5967483, "tags": {"source": "http://www.pug-puz.ro/ ; legea544/2001"}}, {"type": "node", "id": 2777621646, "lat": 45.6501458, "lon": 25.5966073, "tags": {"source": "http://www.pug-puz.ro/ ; legea544/2001"}}, {"type": "node", "id": 2777621728, "lat": 45.6501675, "lon": 25.5966375, "tags": {"source": "http://www.pug-puz.ro/ ; legea544/2001"}}, {"type": "node", "id": 2777621761, "lat": 45.6501788, "lon": 25.5966082, "tags": {"source": "http://www.pug-puz.ro/ ; legea544/2001"}}, {"type": "node", "id": 2777621786, "lat": 45.6501843, "lon": 25.5966171, "tags": {"source": "http://www.pug-puz.ro/ ; legea544/2001"}}, {"type": "node", "id": 2777621795, "lat": 45.6501855, "lon": 25.5968137, "tags": {"source": "http://www.pug-puz.ro/ ; legea544/2001"}}, {"type": "node", "id": 2777621808, "lat": 45.6501897, "lon": 25.5965975, "tags": {"source": "http://www.pug-puz.ro/ ; legea544/2001"}}, {"type": "node", "id": 2777622246, "lat": 45.6502611, "lon": 25.596709, "tags": {"source": "http://www.pug-puz.ro/ ; legea544/2001"}}, {"type": "node", "id": 2777634126, "lat": 45.6511815, "lon": 25.5992566, "tags": {"source": "http://www.pug-puz.ro/ ; legea544/2001"}}, {"type": "node", "id": 2777634129, "lat": 45.6511815, "lon": 25.5992588, "tags": {"source": "http://www.pug-puz.ro/ ; legea544/2001"}}, {"type": "node", "id": 2777634198, "lat": 45.6511852, "lon": 25.5993592, "tags": {"source": "http://www.pug-puz.ro/ ; legea544/2001"}}, {"type": "node", "id": 2777635179, "lat": 45.6512623, "lon": 25.5993535, "tags": {"source": "http://www.pug-puz.ro/ ; legea544/2001"}}, {"type": "node", "id": 2777635207, "lat": 45.6512646, "lon": 25.5994174, "tags": {"source": "http://www.pug-puz.ro/ ; legea544/2001"}}, {"type": "node", "id": 2777635458, "lat": 45.6512846, "lon": 25.5992517, "tags": {"source": "http://www.pug-puz.ro/ ; legea544/2001"}}, {"type": "node", "id": 2777636009, "lat": 45.6513393, "lon": 25.5992488, "tags": {"source": "http://www.pug-puz.ro/ ; legea544/2001"}}, {"type": "node", "id": 2777636146, "lat": 45.6513497, "lon": 25.599248, "tags": {"source": "http://www.pug-puz.ro/ ; legea544/2001"}}, {"type": "node", "id": 2777636211, "lat": 45.6513532, "lon": 25.5993372, "tags": {"source": "http://www.pug-puz.ro/ ; legea544/2001"}}, {"type": "node", "id": 2777636252, "lat": 45.6513555, "lon": 25.5994162, "tags": {"source": "http://www.pug-puz.ro/ ; legea544/2001"}}, {"type": "node", "id": 2777650068, "lat": 45.6523605, "lon": 25.60065, "tags": {"source": "http://www.pug-puz.ro/ ; legea544/2001"}}, {"type": "node", "id": 2777650205, "lat": 45.6523675, "lon": 25.6006498, "tags": {"source": "http://www.pug-puz.ro/ ; legea544/2001"}}, {"type": "node", "id": 2777650654, "lat": 45.65239, "lon": 25.6008956, "tags": {"source": "http://www.pug-puz.ro/ ; legea544/2001"}}, {"type": "node", "id": 2777650757, "lat": 45.6523981, "lon": 25.6006517, "tags": {"source": "http://www.pug-puz.ro/ ; legea544/2001"}}, {"type": "node", "id": 2777650934, "lat": 45.6524153, "lon": 25.6009179, "tags": {"source": "http://www.pug-puz.ro/ ; legea544/2001"}}, {"type": "node", "id": 2777651313, "lat": 45.6524427, "lon": 25.6006905, "tags": {"source": "http://www.pug-puz.ro/ ; legea544/2001"}}, {"type": "node", "id": 2777651344, "lat": 45.6524436, "lon": 25.6008776, "tags": {"source": "http://www.pug-puz.ro/ ; legea544/2001"}}, {"type": "node", "id": 2777651353, "lat": 45.652444, "lon": 25.6006555, "tags": {"source": "http://www.pug-puz.ro/ ; legea544/2001"}}, {"type": "node", "id": 2777651407, "lat": 45.6524474, "lon": 25.6008952, "tags": {"source": "http://www.pug-puz.ro/ ; legea544/2001"}}, {"type": "node", "id": 2777651427, "lat": 45.6524485, "lon": 25.6008746, "tags": {"source": "http://www.pug-puz.ro/ ; legea544/2001"}}, {"type": "node", "id": 2777651528, "lat": 45.652453, "lon": 25.6008718, "tags": {"source": "http://www.pug-puz.ro/ ; legea544/2001"}}, {"type": "node", "id": 2777651668, "lat": 45.6524625, "lon": 25.600866, "tags": {"source": "http://www.pug-puz.ro/ ; legea544/2001"}}, {"type": "node", "id": 2777653617, "lat": 45.6525782, "lon": 25.596611, "tags": {"source": "http://www.pug-puz.ro/ ; legea544/2001"}}, {"type": "node", "id": 2777653777, "lat": 45.6525877, "lon": 25.596571, "tags": {"source": "http://www.pug-puz.ro/ ; legea544/2001"}}, {"type": "node", "id": 2777654000, "lat": 45.6525998, "lon": 25.5965392, "tags": {"source": "http://www.pug-puz.ro/ ; legea544/2001"}}, {"type": "node", "id": 2777654003, "lat": 45.6526, "lon": 25.5965783, "tags": {"source": "http://www.pug-puz.ro/ ; legea544/2001"}}, {"type": "node", "id": 2777654100, "lat": 45.6526065, "lon": 25.596555, "tags": {"source": "http://www.pug-puz.ro/ ; legea544/2001"}}, {"type": "node", "id": 2777654136, "lat": 45.6526112, "lon": 25.5964957, "tags": {"source": "http://www.pug-puz.ro/ ; legea544/2001"}}, {"type": "node", "id": 2777654192, "lat": 45.6526224, "lon": 25.5964902, "tags": {"source": "http://www.pug-puz.ro/ ; legea544/2001"}}, {"type": "node", "id": 2777654202, "lat": 45.6526241, "lon": 25.5964815, "tags": {"source": "http://www.pug-puz.ro/ ; legea544/2001"}}, {"type": "node", "id": 2777654258, "lat": 45.6526353, "lon": 25.5966413, "tags": {"source": "http://www.pug-puz.ro/ ; legea544/2001"}}, {"type": "node", "id": 2777655053, "lat": 45.6527193, "lon": 25.5966859, "tags": {"source": "http://www.pug-puz.ro/ ; legea544/2001"}}, {"type": "node", "id": 2777655082, "lat": 45.6527263, "lon": 25.596549, "tags": {"source": "http://www.pug-puz.ro/ ; legea544/2001"}}, {"type": "node", "id": 2777655101, "lat": 45.6527292, "lon": 25.5965323, "tags": {"source": "http://www.pug-puz.ro/ ; legea544/2001"}}, {"type": "node", "id": 2777655427, "lat": 45.6527508, "lon": 25.596559, "tags": {"source": "http://www.pug-puz.ro/ ; legea544/2001"}}, {"type": "node", "id": 2777661425, "lat": 45.6533572, "lon": 25.5940756, "tags": {"source": "http://www.pug-puz.ro/ ; legea544/2001"}}, {"type": "node", "id": 2777661458, "lat": 45.6533587, "lon": 25.594167, "tags": {"source": "http://www.pug-puz.ro/ ; legea544/2001"}}, {"type": "node", "id": 2777663194, "lat": 45.653498, "lon": 25.5942644, "tags": {"source": "http://www.pug-puz.ro/ ; legea544/2001"}}, {"type": "node", "id": 2777663433, "lat": 45.6535096, "lon": 25.5941689, "tags": {"source": "http://www.pug-puz.ro/ ; legea544/2001"}}, {"type": "node", "id": 2777677386, "lat": 45.6543712, "lon": 25.6034346, "tags": {"source": "http://www.pug-puz.ro/ ; legea544/2001"}}, {"type": "node", "id": 2777677570, "lat": 45.6543859, "lon": 25.6033533, "tags": {"source": "http://www.pug-puz.ro/ ; legea544/2001"}}, {"type": "node", "id": 3201788755, "lat": 45.6489075, "lon": 25.5978299, "tags": {"addr:city": "Bra\u0219ov", "amenity": "restaurant", "cuisine": "regional", "name": "Ambient"}}, {"type": "node", "id": 3428313372, "lat": 45.6530954, "lon": 25.6015253, "tags": {"addr:city": "Bra\u0219ov", "addr:housenumber": "1", "addr:postcode": "500174", "addr:street": "Strada Mihai Viteazul", "amenity": "restaurant", "cuisine": "lebanese", "email": "office@amasi.ro", "name": "Amasi", "phone": "+40 368 454 033;+40 770 300 190", "smoking": "outside", "website": "https://www.amasi.ro/"}}, {"type": "node", "id": 3786223666, "lat": 45.6464919, "lon": 25.5951281, "tags": {"addr:city": "Bra\u0219ov", "amenity": "cafe", "check_date": "2024-06-05", "cuisine": "coffee_shop", "internet_access": "wlan", "name": "Galleria Art & Coffe", "outdoor_seating": "yes", "smoking": "yes"}}, {"type": "node", "id": 4485761393, "lat": 45.6479014, "lon": 25.5983122, "tags": {"addr:city": "Bra\u0219ov", "addr:housenumber": "17", "addr:postcode": "500332", "addr:street": "Strada Iuliu Maniu", "amenity": "cafe", "cuisine": "coffee_shop;breakfast", "internet_access": "wlan", "name": "Croitoria de cafea", "opening_hours": "Mo-Fr 08:00-19:00; Sa 09:30-18:00; Su 09:30-16:00", "phone": "0770263333", "website": "https://m.facebook.com/croitoriadecafea/"}}, {"type": "node", "id": 5111342123, "lat": 45.6472325, "lon": 25.6044652, "tags": {"alt_name": "Bistro Aha;Aha Bistro and Lounge", "amenity": "restaurant", "cuisine": "regional", "name": "Aha"}}, {"type": "node", "id": 5164589287, "lat": 45.6471586, "lon": 25.6042199, "tags": {"amenity": "restaurant", "cuisine": "regional", "name": "Warehouse Pub"}}, {"type": "node", "id": 5180863232, "lat": 45.6496706, "lon": 25.5999488, "tags": {"addr:city": "Bra\u0219ov", "addr:housenumber": "1", "addr:street": "Strada Doctor Ion Cantacuzino", "amenity": "restaurant", "cuisine": "pizza", "name": "Pizzeria Della Nonna", "opening_hours": "Mo-Su 10:30-23:00", "opening_hours:covid19": "Mo-Su 10:30-22:00", "phone": "0268969", "smoking": "outside", "website": "https://pizzanonna.ro/"}}, {"type": "node", "id": 5832247821, "lat": 45.6455161, "lon": 25.599405, "tags": {"amenity": "restaurant", "cuisine": "regional", "dish": "pizza", "internet_access": "wlan", "level": "1", "name": "Ando's", "wheelchair": "no"}}, {"type": "node", "id": 6163513285, "lat": 45.6466554, "lon": 25.601091, "tags": {"addr:city": "Bra\u0219ov", "addr:housenumber": "30", "addr:street": "Bulevardul 15 Noiembrie", "amenity": "restaurant", "cuisine": "greek", "internet_access": "wlan", "name": "Hopaa", "operational_status": "closed", "phone": "0731 334 334", "website": "https://hopaa.ro/"}}, {"type": "node", "id": 6360501412, "lat": 45.6525824, "lon": 25.5965931, "tags": {"addr:city": "Bra\u0219ov", "addr:housenumber": "5", "addr:postcode": "500086", "addr:street": "Strada Doctor Alexandru Davila", "entrance": "yes"}}, {"type": "node", "id": 6364538536, "lat": 45.6524025, "lon": 25.6009066, "tags": {"addr:city": "Bra\u0219ov", "addr:housenumber": "1", "addr:postcode": "500074", "addr:street": "Strada Dealul Morii", "entrance": "yes"}}, {"type": "node", "id": 6378306629, "lat": 45.6516597, "lon": 25.6027932, "tags": {"addr:city": "Bra\u0219ov", "addr:housenumber": "10", "addr:postcode": "500174", "addr:street": "Strada Mihai Viteazul", "entrance": "yes"}}, {"type": "node", "id": 6948591094, "lat": 45.650212, "lon": 25.5967769, "tags": {"air_conditioning": "yes", "amenity": "restaurant", "bar": "yes", "cuisine": "seafood", "diet:mediterranean": "yes", "internet_access": "wlan", "name": "Ponton", "opening_hours": "09:00-23:00", "outdoor_seating": "yes", "phone": "+40374048048", "start_date": "2023-07-03"}}, {"type": "node", "id": 9288722883, "lat": 45.6537006, "lon": 25.5974849, "tags": {"addr:city": "Bra\u0219ov", "name": "Belvedere Colina Universit\u0103\u021bii", "tourism": "viewpoint"}}, {"type": "node", "id": 9752561807, "lat": 45.650023, "lon": 25.6042232, "tags": {"addr:city": "Bra\u0219ov", "addr:housenumber": "56", "addr:postcode": "500091", "addr:postcode:source": "Date de la Po\u0219ta Rom\u00e2n\u0103, publicate sub Licen\u021ba pentru Guvernare Deschis\u0103 v1.0 la http://date.gov.ro/organization/posta-romana", "addr:street": "Strada Iuliu Maniu", "amenity": "restaurant", "cuisine": "regional", "email": "restaurantceasurau@sergiana.ro", "name": "Teras\u0103 Ceasu' R\u0103u", "opening_hours": "Mo-Su 11:00-23:30", "phone": "+40 723 297 993;+40 268 476 670", "smoking": "outside", "website": "https://www.sergiana.ro/restaurants/ceasu-rau-restaurant"}}, {"type": "node", "id": 9997179735, "lat": 45.6483317, "lon": 25.6041285, "tags": {"addr:city": "Bra\u0219ov", "addr:housenumber": "33", "addr:street": "Bulevardul 15 Noiembrie", "alt_name": "Cafeteca Patria", "amenity": "cafe", "check_date:opening_hours": "2025-03-14", "name": "Cafeteca", "opening_hours": "Mo-Sa 07:30-21:00; Su 09:00-21:00", "website": "https://cafeteca.ro/"}}, {"type": "node", "id": 11352467269, "lat": 45.6465085, "lon": 25.6008714, "tags": {"addr:city": "Bra\u0219ov", "addr:housenumber": "28", "addr:street": "Bulevardul 15 Noiembrie", "amenity": "restaurant", "cuisine": "burger", "name": "Texas Burger", "name:en": "Texas Burger"}}, {"type": "node", "id": 11411760313, "lat": 45.6544532, "lon": 25.6027175, "tags": {"addr:city": "Bra\u0219ov", "amenity": "cafe", "cuisine": "coffee_shop", "name": "Urban Caf\u00e9"}}, {"type": "node", "id": 11913144616, "lat": 45.646741, "lon": 25.601325, "tags": {"amenity": "restaurant", "cuisine": "chinese", "delivery": "yes", "name": "Pandamania"}}, {"type": "node", "id": 11926433012, "lat": 45.6489758, "lon": 25.6054264, "tags": {"amenity": "cafe", "check_date": "2025-05-09", "check_date:opening_hours": "2025-05-09", "name": "Okfea", "opening_hours": "Mo-Fr 07:30-22:00; Sa,Su 09:00-16:30"}}, {"type": "node", "id": 11952133825, "lat": 45.6464144, "lon": 25.6013862, "tags": {"amenity": "cafe", "check_date": "2024-06-02", "name": "Caffeteria"}}, {"type": "node", "id": 11952152549, "lat": 45.648897, "lon": 25.6060597, "tags": {"amenity": "restaurant", "check_date": "2024-06-02", "name": "Ober pensiune restaurant"}}, {"type": "node", "id": 11952152554, "lat": 45.6485692, "lon": 25.604844, "tags": {"amenity": "restaurant", "check_date": "2025-05-09", "check_date:opening_hours": "2025-05-09", "name": "Laleli Restaurant", "opening_hours": "Mo-Fr 10:00-22:00; Sa,Su 11:00-22:00"}}, {"type": "node", "id": 11952208898, "lat": 45.6469779, "lon": 25.6042177, "tags": {"amenity": "restaurant", "check_date": "2024-06-02", "name": "Wino Restaurant"}}, {"type": "node", "id": 11952211605, "lat": 45.646175, "lon": 25.601896, "tags": {"amenity": "restaurant", "check_date": "2024-06-02", "cuisine": "italian", "name": "Pizzavolla"}}, {"type": "node", "id": 11952212214, "lat": 45.647188, "lon": 25.6039113, "tags": {"amenity": "restaurant", "check_date": "2024-06-02", "name": "Artigianale"}}, {"type": "node", "id": 11958146647, "lat": 45.6465525, "lon": 25.5963073, "tags": {"addr:city": "Bra\u0219ov", "amenity": "cafe", "check_date": "2024-06-05", "cuisine": "coffee_shop", "name": "Barista Coffe & Snacks"}}, {"type": "node", "id": 12087155403, "lat": 45.6526319, "lon": 25.6048336, "tags": {"amenity": "restaurant", "cuisine": "chinese", "name": "Beijing"}}, {"type": "node", "id": 12174583851, "lat": 45.6466485, "lon": 25.6011277, "tags": {"addr:city": "Bra\u0219ov", "addr:housenumber": "15", "addr:postcode": "500031", "addr:street": "Strada Matei Basarab", "amenity": "restaurant", "cuisine": "georgian", "name": "Dze Best-Georgian restaurant", "opening_hours": "Mo-Su 10:00-22:00", "phone": "+40745771911", "website": "https://tazz.ro/brasov/dze-best/13293/restaurant"}}, {"type": "node", "id": 12875395116, "lat": 45.6491008, "lon": 25.6048057, "tags": {"addr:city": "Bra\u0219ov", "addr:housenumber": "4", "addr:postcode": "500097", "addr:street": "Strada Castanilor", "amenity": "bar", "brewery": "various", "contact:facebook": "https://www.facebook.com/profile.php?id=100054589982862", "mobile": "+40 741 500 882", "name": "King's Court", "opening_hours": "Mo-Th 17:00-24:00; Fr-Su 12:00-24:00", "outdoor_seating": "yes", "payment:cash": "yes", "payment:debit_cards": "yes"}}, {"type": "node", "id": 12956995537, "lat": 45.6499056, "lon": 25.6024158, "tags": {"addr:city": "Bra\u0219ov", "addr:housenumber": "39", "addr:street": "Iuliu Maniu", "amenity": "restaurant", "name": "Kifla MEAT-ing Point"}}, {"type": "node", "id": 13073652146, "lat": 45.6525439, "lon": 25.6001072, "tags": {"addr:city": "Bra\u0219ov", "addr:housenumber": "14", "addr:street": "Strada Sitei", "amenity": "cafe", "name": "5 to go", "opening_hours": "Mo-Fr 07:00-17:00", "smoking": "outside"}}, {"type": "node", "id": 13334754268, "lat": 45.6458602, "lon": 25.5966457, "tags": {"artwork_type": "bust", "name": "Capul statuii de pe Monumentul Millenium", "name:hu": "A Millenniumi eml\u00e9km\u0171 feje", "tourism": "artwork"}}, {"type": "way", "id": 272733433, "nodes": [2776615595, 2776615566, 2776615600, 2776615582, 2776615594, 2776615493, 2776615489, 2776615466, 2776615398, 2776615372, 2776615338, 2776615311, 2776615306, 2776615473, 2776615484, 6378306629, 2776615568, 2776615557, 2776615595], "tags": {"addr:street": "Strada Mihai Viteazul", "amenity": "restaurant", "building": "yes", "cuisine": "italian", "name": "Bistro Pinto", "opening_hours": "Mo-Su 09:00-23:00"}}, {"type": "way", "id": 272858588, "nodes": [2777636252, 2777635207, 2777635179, 2777634198, 2777634129, 2777634126, 2777635458, 2777636009, 2777636146, 2777636211, 2777636252], "tags": {"addr:city": "Bra\u0219ov", "addr:housenumber": "32", "addr:street": "Strada Doctor Victor Babe\u0219", "amenity": "restaurant", "building": "yes", "name": "Simone", "source": "http://www.pug-puz.ro/;legea544/2001"}}, {"type": "way", "id": 272862575, "nodes": [2777651668, 2777651528, 2777651427, 2777651344, 2777651407, 2777650934, 6364538536, 2777650654, 2777650068, 2777650205, 2777650757, 2777651353, 2777651313, 2777651668], "tags": {"amenity": "cafe", "building": "yes", "cuisine": "international", "name": "JAD Caf\u00e9", "source": "Bing"}}, {"type": "way", "id": 272863796, "nodes": [2777655101, 2777655082, 2777655427, 2777655053, 2777654258, 2777653617, 6360501412, 2777653777, 2777654003, 2777654100, 2777654000, 2777654136, 2777654192, 2777654202, 2777655101], "tags": {"addr:city": "Bra\u0219ov", "addr:housenumber": "5", "addr:street": "Strada Doctor Alexandru Davila", "amenity": "restaurant", "building": "yes", "name": "Bloom", "source": "http://www.pug-puz.ro/;legea544/2001;survey", "website": "https://bloom-restaurant.ro/"}}, {"type": "way", "id": 272867858, "nodes": [2777663433, 2777663194, 2777661458, 2777661425, 2777663433], "tags": {"amenity": "cafe", "building": "yes", "cuisine": "regional", "name": "Aloha", "source": "http://www.pug-puz.ro/;legea544/2001"}}, {"type": "way", "id": 272872404, "nodes": [2776617922, 2776617874, 2777677386, 2777677570, 2776617922], "tags": {"addr:city": "Bra\u0219ov", "addr:housenumber": "17", "addr:street": "Strada 13 Decembrie", "amenity": "restaurant", "building": "yes", "cuisine": "regional", "name": "Restaurant Pizzerie 4 Amici", "source": "http://www.pug-puz.ro/ ; legea544/2001"}}, {"type": "way", "id": 272886152, "nodes": [2777622246, 6948591094, 2777621795, 2777621625, 2777621458, 2777621646, 2777621728, 2777621786, 2777621761, 2777621808, 2777622246], "tags": {"addr:city": "Bra\u0219ov", "addr:housenumber": "5", "addr:postcode": "500085", "addr:street": "Strada Alexandru Ioan Cuza", "amenity": "restaurant", "building": "yes", "cuisine": "seafood", "diet:mediterranean": "yes", "name": "Ponton Restaurant", "phone": "+40374048048", "source": "Bing sat"}}]}