{"version": 0.6, "generator": "Overpass API 0.7.62.8 e802775f", "osm3s": {"timestamp_osm_base": "2025-12-06T10:07:58Z", "copyright": "The data included in this document is from www.openstreetmap.org. The data is made available under ODbL."}, "elements": [{"type": "node", "id": 163244276, "lat": 45.79792, "lon": 24.1520267, "tags": {"amenity": "restaurant", "cuisine": "regional", "is_in:city": "Sibiu", "is_in:country": "Romania", "is_in:country_code": "RO", "is_in:county": "Sibiu", "name": "Crama Sibiana"}}, {"type": "node", "id": 339275865, "lat": 45.797682, "lon": 24.1495566}, {"type": "node", "id": 415557111, "lat": 45.7983163, "lon": 24.1552955, "tags": {"historic": "monument", "is_in:city": "Sibiu", "is_in:country": "Romania", "is_in:country_code": "RO", "is_in:county": "Sibiu", "monument": "statue", "name": "Monument Nicholaus Olahus"}}, {"type": "node", "id": 415558934, "lat": 45.7968088, "lon": 24.1549797, "tags": {"historic": "memorial", "is_in:city": "Sibiu", "is_in:country": "Romania", "is_in:country_code": "RO", "is_in:county": "Sibiu", "memorial": "plaque", "name": "Cas\u0103 Memorial\u0103"}}, {"type": "node", "id": 482810800, "lat": 45.7982085, "lon": 24.1507641, "tags": {"addr:city": "Sibiu", "addr:housenumber": "16", "addr:street": "Pia\u021ba Mic\u0103", "amenity": "cafe", "cuisine": "regional;pizza;german;international", "indoor_seating": "yes", "internet_access:fee": "no", "is_in:city": "Sibiu", "is_in:country": "Romania", "is_in:country_code": "RO", "is_in:county": "Sibiu", "name": "Atrium", "outdoor_seating": "yes", "smoking": "outside"}}, {"type": "node", "id": 482810802, "lat": 45.797431, "lon": 24.1521173, "tags": {"addr:city": "Sibiu", "addr:housenumber": "1", "addr:street": "Pia\u021ba Mare", "amenity": "restaurant", "cuisine": "regional;italian", "is_in:city": "Sibiu", "is_in:country": "Romania", "is_in:country_code": "RO", "is_in:county": "Sibiu", "name": "La Turn", "opening_hours": "Mo-Su 10:00-02:00", "outdoor_seating": "yes", "phone": "+040 727 528876"}}, {"type": "node", "id": 482810803, "lat": 45.7955282, "lon": 24.1506598, "tags": {"addr:city": "Sibiu", "addr:housenumber": "4", "addr:street": "Strada Nicolae B\u0103lcescu", "amenity": "restaurant", "check_date": "2025-08-23", "check_date:opening_hours": "2023-08-19", "cuisine": "regional", "indoor_seating": "yes", "is_in:city": "Sibiu", "is_in:country": "Romania", "is_in:country_code": "RO", "is_in:county": "Sibiu", "name": "Restaurant \u00cemp\u0103ratul Romanilor", "opening_hours": "Mo-Su 11:30-23:00", "outdoor_seating": "yes", "smoking": "outside"}}, {"type": "node", "id": 482815086, "lat": 45.7972251, "lon": 24.150666, "tags": {"amenity": "pub", "is_in:city": "Sibiu", "is_in:country": "Romania", "is_in:country_code": "RO", "is_in:county": "Sibiu", "name": "Union", "opening_hours": "Su-Th 09:00-24:00, Fr,Sa 09:00-01:00"}}, {"type": "node", "id": 482815112, "lat": 45.798615, "lon": 24.1517924, "tags": {"addr:city": "Sibiu", "addr:housenumber": "23", "addr:street": "Pia\u021ba Mic\u0103", "amenity": "bar", "is_in:city": "Sibiu", "is_in:country": "Romania", "is_in:country_code": "RO", "is_in:county": "Sibiu", "name": "Music Pub", "outdoor_seating": "yes", "smoking": "outside"}}, {"type": "node", "id": 482815215, "lat": 45.7943468, "lon": 24.1513443, "tags": {"addr:city": "Sibiu", "addr:postcode": "550160", "addr:street": "Strada Alexandru Papiu-Ilarian", "amenity": "restaurant", "cuisine": "regional;romanian;german", "indoor_seating": "yes", "name": "Sibiul Vechi", "outdoor_seating": "no", "phone": "+40269212814; +40269210461", "website": "http://www.sibiulvechi.ro/"}}, {"type": "node", "id": 482823467, "lat": 45.7946118, "lon": 24.1528217, "tags": {"addr:city": "Sibiu", "addr:housenumber": "1", "addr:street": "Pia\u021ba Schiller", "historic": "monument", "is_in:city": "Sibiu", "is_in:country": "Romania", "is_in:country_code": "RO", "is_in:county": "Sibiu", "name": "Bust Friedrich von Schiller"}}, {"type": "node", "id": 482838286, "lat": 45.7969692, "lon": 24.1524962, "tags": {"addr:city": "Sibiu", "addr:housenumber": "14", "addr:street": "Pia\u021ba Mare", "amenity": "restaurant", "cuisine": "coffee_shop", "is_in:city": "Sibiu", "is_in:country": "Romania", "is_in:country_code": "RO", "is_in:county": "Sibiu", "name": "Amber Cafe", "opening_hours": "Mo-Su 08:00-23:00"}}, {"type": "node", "id": 482838288, "lat": 45.7963288, "lon": 24.1523435, "tags": {"amenity": "restaurant", "check_date:opening_hours": "2023-10-03", "contact:facebook": "https://www.facebook.com/rabbitsoup/", "indoor_seating": "yes", "name": "rabbit hole & soup", "opening_hours:signed": "no", "outdoor_seating": "yes"}}, {"type": "node", "id": 483110817, "lat": 45.7934855, "lon": 24.1485614, "tags": {"addr:city": "Sibiu", "fee": "yes", "is_in:city": "Sibiu", "is_in:country": "Romania", "is_in:country_code": "RO", "is_in:county": "Sibiu", "name": "Galeria de Art\u0103 Contemporan\u0103", "tourism": "museum"}}, {"type": "node", "id": 483110830, "lat": 45.7956613, "lon": 24.1522649, "tags": {"addr:city": "Sibiu", "addr:street": "Strada Arhivelor", "amenity": "restaurant", "cuisine": "regional", "indoor_seating": "yes", "is_in:city": "Sibiu", "is_in:country": "Romania", "is_in:country_code": "RO", "is_in:county": "Sibiu", "name": "Restaurant La Arhive", "outdoor_seating": "yes", "smoking": "outside"}}, {"type": "node", "id": 488616772, "lat": 45.7948734, "lon": 24.1549407}, {"type": "node", "id": 488616775, "lat": 45.7947752, "lon": 24.1547548}, {"type": "node", "id": 488633927, "lat": 45.7949494, "lon": 24.1545622}, {"type": "node", "id": 488633935, "lat": 45.7950497, "lon": 24.1547521}, {"type": "node", "id": 488883008, "lat": 45.7983368, "lon": 24.1509953}, {"type": "node", "id": 488883011, "lat": 45.7984003, "lon": 24.1514294}, {"type": "node", "id": 488883012, "lat": 45.7984857, "lon": 24.1514026}, {"type": "node", "id": 582696993, "lat": 45.7978361, "lon": 24.1512313, "tags": {"addr:city": "Sibiu", "addr:housenumber": "13", "addr:street": "Pia\u021ba Mic\u0103", "amenity": "pub", "brewery": "yes", "is_in:city": "Sibiu", "is_in:country": "Romania", "is_in:country_code": "RO", "is_in:county": "Sibiu", "name": "Einstein", "outdoor_seating": "yes", "smoking": "outside"}}, {"type": "node", "id": 585362271, "lat": 45.7984721, "lon": 24.1514063}, {"type": "node", "id": 587622930, "lat": 45.7983599, "lon": 24.1522356, "tags": {"addr:city": "Sibiu", "addr:housenumber": "26", "addr:street": "Pia\u021ba Mic\u0103", "amenity": "pub", "is_in:city": "Sibiu", "is_in:country": "Romania", "is_in:country_code": "RO", "is_in:county": "Sibiu", "name": "Faust", "outdoor_seating": "yes", "smoking": "outside"}}, {"type": "node", "id": 587675992, "lat": 45.7984206, "lon": 24.1509671}, {"type": "node", "id": 588037463, "lat": 45.7980764, "lon": 24.1488905, "tags": {"amenity": "restaurant", "check_date": "2024-08-16", "cuisine": "regional", "is_in:city": "Sibiu", "is_in:country": "Romania", "is_in:country_code": "RO", "is_in:county": "Sibiu", "name": "Pasaj", "opening_hours": "Tu-Su 12:00-22:00"}}, {"type": "node", "id": 588057974, "lat": 45.7960708, "lon": 24.1511838, "tags": {"addr:city": "Sibiu", "addr:housenumber": "2", "addr:street": "Strada Nicolae B\u0103lcescu", "amenity": "restaurant", "indoor_seating": "yes", "name": "Lyra", "outdoor_seating": "yes"}}, {"type": "node", "id": 588061547, "lat": 45.7945392, "lon": 24.1510674, "tags": {"addr:city": "Sibiu", "addr:street": "Strada Alexandru Papiu-Ilarian", "amenity": "pub", "is_in:city": "Sibiu", "is_in:country": "Romania", "is_in:country_code": "RO", "is_in:county": "Sibiu", "name": "Oldies Pub", "opening_hours": "We-Sa 21:00-04:00", "smoking": "outside"}}, {"type": "node", "id": 588072080, "lat": 45.7965456, "lon": 24.1528755, "tags": {"amenity": "restaurant", "cuisine": "german;heuriger", "is_in:city": "Sibiu", "is_in:country": "Romania", "is_in:county": "Sibiu", "name": "Intim"}}, {"type": "node", "id": 588933301, "lat": 45.7985944, "lon": 24.1565003, "tags": {"addr:city": "Sibiu", "addr:street": "Strada General Magheru", "air_conditioning": "no", "amenity": "restaurant", "cuisine": "regional;pizza;italian", "diet:vegetarian": "yes", "indoor_seating": "yes", "is_in:city": "Sibiu", "is_in:country": "Romania", "is_in:country_code": "RO", "is_in:county": "Sibiu", "name": "Pizzeria Casa Roman\u0103", "opening_hours": "Mo-Su 08:00-23:00", "outdoor_seating": "no", "smoking": "outside", "website": "https://www.pizzacasaromana.ro/"}}, {"type": "node", "id": 588944147, "lat": 45.7971846, "lon": 24.1471166, "tags": {"addr:city": "Sibiu", "addr:housenumber": "4", "addr:street": "Strada T\u00e2rgul Pe\u0219telui", "amenity": "restaurant", "is_in:city": "Sibiu", "is_in:country": "Romania", "is_in:country_code": "RO", "is_in:county": "Sibiu", "name": "kafana", "opening_hours": "Mo-Su 12:00-23:00", "phone": "+40 753 330236", "website": "https://kafana.ro/"}}, {"type": "node", "id": 599298601, "lat": 45.7949392, "lon": 24.1507887, "tags": {"amenity": "pub", "is_in:city": "Sibiu", "is_in:country": "Romania", "is_in:country_code": "RO", "is_in:county": "Sibiu"}}, {"type": "node", "id": 620032734, "lat": 45.7971834, "lon": 24.1521827, "tags": {"addr:city": "Sibiu", "artwork_type": "statue", "image": "https://photos.app.goo.gl/irsBrsvb82kVvD5A9", "is_in:city": "Sibiu", "is_in:country": "Romania", "is_in:country_code": "RO", "is_in:county": "Sibiu", "name": "Statuia lui Gheorghe Laz\u0103r", "tourism": "artwork", "wikipedia": "ro:Statuia lui Gheorghe Laz\u0103r din Sibiu"}}, {"type": "node", "id": 659501006, "lat": 45.7935714, "lon": 24.1499866, "tags": {"addr:city": "Sibiu", "addr:housenumber": "37", "addr:postcode": "550159", "addr:street": "Strada Nicolae B\u0103lcescu", "amenity": "restaurant", "cuisine": "regional", "is_in:city": "Sibiu", "is_in:country": "Romania", "is_in:country_code": "RO", "is_in:county": "Sibiu", "name": "Green Gallery", "opening_hours": "Mo-Su 09:00-24:00", "outdoor_seating": "yes", "smoking": "outside"}}, {"type": "node", "id": 832408783, "lat": 45.7969173, "lon": 24.152713, "tags": {"addr:city": "Sibiu", "addr:housenumber": "14", "addr:street": "Pia\u021ba Mare", "amenity": "restaurant", "cuisine": "regional", "is_in:city": "Sibiu", "is_in:country": "Romania", "is_in:country_code": "RO", "is_in:county": "Sibiu", "name": "Gothic", "outdoor_seating": "yes", "smoking": "outside"}}, {"type": "node", "id": 878278703, "lat": 45.7932542, "lon": 24.1491057, "tags": {"addr:city": "Sibiu", "addr:housenumber": "40-42", "addr:postcode": "550159", "addr:street": "Strada Nicolae B\u0103lcescu", "amenity": "restaurant", "cuisine": "regional;italian;international", "indoor_seating": "yes", "is_in:city": "Sibiu", "is_in:country": "Romania", "is_in:country_code": "RO", "is_in:county": "Sibiu", "name": "Frieda", "opening_hours": "Mo-Fr 08:00-12:00; Sa,Su 09:00-12:00", "outdoor_seating": "yes", "smoking": "outside"}}, {"type": "node", "id": 956229389, "lat": 45.7953678, "lon": 24.1508572, "tags": {"addr:city": "Sibiu", "addr:housenumber": "7", "addr:street": "Strada Nicolae B\u0103lcescu", "amenity": "cafe", "check_date": "2025-05-09", "cuisine": "juice;smoothies;raw;tea", "diet:fruitarian": "yes", "diet:gluten_free": "yes", "diet:raw": "yes", "diet:sugar_free": "yes", "diet:vegan": "yes", "diet:vegetarian": "yes", "internet_access": "wlan", "internet_access:fee": "no", "internet_access:ssid": "Naturo Juice Free Wi-Fi", "is_in:city": "Sibiu", "is_in:country": "Romania", "is_in:country_code": "RO", "is_in:county": "Sibiu", "name": "Naturo Juice", "opening_hours": "Mo-Fr 09:00-21:00; Sa,Su 09:00-21:00", "outdoor_seating": "yes", "payment:cash": "yes", "payment:credit_cards": "yes", "smoking": "no"}}, {"type": "node", "id": 1112066246, "lat": 45.7954812, "lon": 24.1453989}, {"type": "node", "id": 1112066366, "lat": 45.7957889, "lon": 24.1452476}, {"type": "node", "id": 1112066474, "lat": 45.7958215, "lon": 24.1453845}, {"type": "node", "id": 1112066541, "lat": 45.7958215, "lon": 24.1446334}, {"type": "node", "id": 1112066601, "lat": 45.795739, "lon": 24.1448036}, {"type": "node", "id": 1112066632, "lat": 45.7955113, "lon": 24.1455358}, {"type": "node", "id": 1112066694, "lat": 45.7955657, "lon": 24.1453627}, {"type": "node", "id": 1112066779, "lat": 45.7956495, "lon": 24.1453268}, {"type": "node", "id": 1112066988, "lat": 45.7958805, "lon": 24.1451792}, {"type": "node", "id": 1112067045, "lat": 45.7957646, "lon": 24.1446737}, {"type": "node", "id": 1112067135, "lat": 45.795652, "lon": 24.1454781}, {"type": "node", "id": 1112067188, "lat": 45.79603, "lon": 24.1452206}, {"type": "node", "id": 1113696936, "lat": 45.798364, "lon": 24.1499995}, {"type": "node", "id": 1113696938, "lat": 45.798523, "lon": 24.1498758}, {"type": "node", "id": 1113696968, "lat": 45.7985339, "lon": 24.1498662}, {"type": "node", "id": 1113696976, "lat": 45.7984404, "lon": 24.1496206}, {"type": "node", "id": 1113697035, "lat": 45.7982665, "lon": 24.149758}, {"type": "node", "id": 1113697061, "lat": 45.7984896, "lon": 24.149749}, {"type": "node", "id": 1113697129, "lat": 45.7984367, "lon": 24.1496115}, {"type": "node", "id": 1113721113, "lat": 45.7986127, "lon": 24.1512425}, {"type": "node", "id": 1113743699, "lat": 45.7984649, "lon": 24.1512667}, {"type": "node", "id": 1113806580, "lat": 45.7974793, "lon": 24.1494648}, {"type": "node", "id": 1113806629, "lat": 45.7976987, "lon": 24.1494795}, {"type": "node", "id": 1113806640, "lat": 45.7974696, "lon": 24.1494593}, {"type": "node", "id": 1113806659, "lat": 45.7974932, "lon": 24.1493685}, {"type": "node", "id": 1113806669, "lat": 45.7977002, "lon": 24.1494663}, {"type": "node", "id": 1213896852, "lat": 45.7944357, "lon": 24.1505221, "tags": {"historic": "memorial", "is_in:city": "Sibiu", "is_in:country": "Romania", "is_in:country_code": "RO", "is_in:county": "Sibiu", "memorial": "plaque", "name": "Alexandru Ioan Cuza"}}, {"type": "node", "id": 1417566997, "lat": 45.7939833, "lon": 24.146299, "tags": {"addr:city": "Sibiu", "addr:street": "Strada Mitropoliei", "name": "Landeskirchliches Museum", "tourism": "museum"}}, {"type": "node", "id": 1417573299, "lat": 45.7940818, "lon": 24.1461424, "tags": {"addr:city": "Sibiu", "amenity": "cafe", "cuisine": "german;coffee_shop", "indoor_seating": "yes", "name": "B\u00fcchercafe ERASMUS", "opening_hours": "Mo-Sa 10:00-18:00; Su 11:30-18:00", "outdoor_seating": "yes"}}, {"type": "node", "id": 1754818109, "lat": 45.7970441, "lon": 24.1555899}, {"type": "node", "id": 1754818111, "lat": 45.7971345, "lon": 24.1554827}, {"type": "node", "id": 1754818117, "lat": 45.7972514, "lon": 24.1557211}, {"type": "node", "id": 1754818118, "lat": 45.7972636, "lon": 24.1557066}, {"type": "node", "id": 1754818122, "lat": 45.7972968, "lon": 24.1558017}, {"type": "node", "id": 1754848909, "lat": 45.7966202, "lon": 24.1543542}, {"type": "node", "id": 1754848915, "lat": 45.7966913, "lon": 24.1544696}, {"type": "node", "id": 1754848920, "lat": 45.7967852, "lon": 24.1540187}, {"type": "node", "id": 1754848950, "lat": 45.7969475, "lon": 24.1539313}, {"type": "node", "id": 2302101646, "lat": 45.7981016, "lon": 24.152133, "tags": {"addr:city": "Sibiu", "addr:housenumber": "29", "addr:street": "Pia\u021ba Mic\u0103", "amenity": "restaurant", "cuisine": "regional", "name": "Delis", "opening_hours": "Mo-Su 10:00-24:00", "outdoor_seating": "yes", "smoking": "outside"}}, {"type": "node", "id": 2392061622, "lat": 45.8007013, "lon": 24.1505145, "tags": {"addr:city": "Sibiu", "addr:housenumber": "22", "addr:postcode": "550188", "addr:street": "Strada Ocnei", "amenity": "restaurant", "cuisine": "italian", "internet_access": "wlan", "name": "Max", "opening_hours": "Mo-Su 12:00-23:00", "outdoor_seating": "yes", "phone": "0269233003", "smoking": "outside", "website": "http://max-restaurant.ro"}}, {"type": "node", "id": 2412870644, "lat": 45.7946949, "lon": 24.1537545, "tags": {"addr:city": "Sibiu", "addr:country": "RO", "addr:housenumber": "14", "addr:postcode": "550160", "addr:street": "Strada Cet\u0103\u021bii", "amenity": "restaurant", "cuisine": "regional", "email": "contact@pardoncafesibiu.ro", "name": "Pardon - Atelier - Cafe & Bistro", "opening_hours": "09:00-15:00,18:00-23:00; Mo off", "outdoor_seating": "yes", "toilets": "yes", "toilets:access": "customers", "toilets:wheelchair": "no", "url": "http://pardoncafesibiu.ro/", "wheelchair": "no", "wheelchair:step_height": "35"}}, {"type": "node", "id": 2634651825, "lat": 45.7976053, "lon": 24.1511072, "tags": {"SIRUTA:code": "143469", "addr:city": "Sibiu", "addr:housenumber": "11", "addr:postcode": "550182", "addr:street": "Pia\u021ba Mic\u0103", "codul_entit\u0103\u021bii_muzeale": "6966510.0", "description:ro": "Muzeul Civilizatiei Transilvane \"ASTRA\", infiintat in anul 1993 pentru a reprezenta cultura si civilizatia populara transilvana in viziune interdisciplinara si plurietnica, este continuatorul patrimonial, programatic si structural-tematic al Muzeului \"As", "email": "office@muzeulastra.ro;civilizatie.transilvana@muzeulastra.ro", "fax": "0269 202.411", "name": "Muzeul Civiliza\u021biei Transilvane \"ASTRA\"", "name:en": "\"ASTRA\" Museum of Transylvanian Civilisation", "opening_hours": "\"no permanent exhibition\"", "phone": "0269/202.400", "source": "INP", "source:link": "http://date.gov.ro/dataset/ghidul-muzeelor-din-romania", "start_date": "1993", "tourism": "museum", "tourism_survey": "05.12.2013 11:30:25", "website": "https://www.muzeulastra.ro/", "wikidata": "Q12736074", "wikipedia": "ro:Muzeul Civiliza\u021biei Transilvane \u201eASTRA\u201d din Sibiu"}}, {"type": "node", "id": 2634651926, "lat": 45.798384, "lon": 24.151076, "tags": {"SIRUTA:code": "143469", "addr:city": "Sibiu", "addr:housenumber": "21", "addr:postcode": "550182", "addr:street": "Pia\u021ba Mic\u0103", "codul_entit\u0103\u021bii_muzeale": "6966509.0", "description:ro": "infiintat la 1 iulie 1997 Muzeul de Etnografie Saseasca \"Emil Sigerus\" are in patrimoniul sau peste 7.000 de obiecte din Transilvania secolelor XIV - XX. Cele mai importante au apartinut unor colectionari renumiti, precum Emil Sigerus, Julius Bielz, Wihe", "email": "office@muzeulastra.ro;sigerus@muzeulastra.ro", "fax": "0269 202411", "name": "Muzeul de Etnografie \u0219i Art\u0103 Popular\u0103 S\u0103seasc\u0103 \"Emil Sigerus\"", "name:en": "\"Emil Sigerus\" Museum of Saxon Ethnography and Folk Art", "opening_hours": "Mo-Su 09:00-17:00", "phone": "0269/202.422", "source": "INP", "source:link": "http://date.gov.ro/dataset/ghidul-muzeelor-din-romania", "start_date": "1997", "tourism": "museum", "tourism_survey": "10.12.2013 14:45:09", "website": "http://www.sigerus.muzeulastra.ro/", "wikidata": "Q18542208", "wikipedia": "ro:Muzeul de etnografie \u0219i art\u0103 popular\u0103 s\u0103seasc\u0103 \u201eEmil Sigerus\u201d"}}, {"type": "node", "id": 2634651935, "lat": 45.7975553, "lon": 24.151052, "tags": {"SIRUTA:code": "143469", "addr:city": "Sibiu", "addr:housenumber": "11", "addr:postcode": "550182", "addr:street": "Pia\u021ba Mic\u0103", "codul_entit\u0103\u021bii_muzeale": "6.9665021E7", "description:en": "In September 1992 the first permanent exhibition was inaugurated: \"The folk creation of world peoples\", and on the 18th of May 1993 (when the museum was opened officially) was inaugurated the second permanent exhibition: \"The culture and art of the world", "description:ro": "in septembrie 1992 este vernisata prima expozitie permanenta: \"Din creatia artizanala a popoarelor lumii\", iar in 18 mai 1993 (cand are loc deschiderea oficiala a muzeului) este vernisata cea de-a doua expozitie permanenta: \"Din cultura si arta popoarelo", "email": "office@muzeulastra.ro;binder@muzeulastra.ro", "fax": "0269/202.411", "fee": "yes", "name": "Muzeul de Etnografie Universala \"Franz Binder\"", "name:en": "\"Franz Binder\" World Ethnography Museum", "phone": "0269/202.409", "source": "INP", "source:link": "http://date.gov.ro/dataset/ghidul-muzeelor-din-romania", "start_date": "1993", "tourism": "museum", "tourism_survey": "10.12.2013 14:45:05", "website": "https://www.binder.muzeulastra.ro/", "wikidata": "Q18542204", "wikipedia": "ro:Muzeul de etnografie universal\u0103 \"Franz Binder\""}}, {"type": "node", "id": 2634652034, "lat": 45.7948782, "lon": 24.1476365, "tags": {"SIRUTA:code": "143469", "addr:city": "Sibiu", "addr:housenumber": "22", "addr:postcode": "550179", "addr:street": "Strada Mitropoliei", "codul_entit\u0103\u021bii_muzeale": "5.144000002E9", "name": "Muzeul de Icoane \u0219i Obiecte Biserice\u0219ti \"Casa Mihai Eminescu\"", "name:en": "\"Mihai Eminescu House\" Museum of Icons and Church Objects", "opening_hours": "unknown", "phone": "0269/217.863; 0269/211.584", "source": "INP", "source:link": "http://date.gov.ro/dataset/ghidul-muzeelor-din-romania", "start_date": "1983", "tourism": "museum", "tourism_survey": "30.11.2011 13:38:36"}}, {"type": "node", "id": 2634652230, "lat": 45.796547, "lon": 24.1506559, "tags": {"SIRUTA:code": "143469", "addr:city": "Sibiu", "addr:housenumber": "4 - 5", "addr:postcode": "550163", "addr:street": "Pia\u021ba Mare", "alt_name": "Galeria de Art\u0103 Rom\u00e2neasc\u0103", "codul_entit\u0103\u021bii_muzeale": "6966500.0", "description:en": "The museum was founded on the basis of the former Brukental collections of the Carpathian Society Museum. In 1950, the 497 works of Romanian art of the ASTRA Museum were added to these collections. The palace comprises the Brukental Picture Gallery and t", "description:ro": "infiintat avand la baza fostele colectii Brukenthal, la care s-au adaugat colectiile Muzeului Societatii Carpatine. in anul 1950, acestor colectii li se adauga cele 497 lucrari de arta romaneasca ale Muzeului ASTREI. Palatul cuprinde Pinacoteca Brukentha", "email": "info@brukenthalmuseum.ro", "fax": "0269/211.545", "fee": "yes", "heritage": "2", "heritage:operator": "lmi", "name": "Muzeul Na\u021bional Brukenthal", "name:de": "Brukenthal-Museum", "name:en": "Brukenthal National Museum", "name:fr": "Mus\u00e9e Brukenthal", "name:ro": "Muzeul Na\u021bional Brukenthal", "phone": "0269/217.691;0369.101.780", "ref:RO:lmi": "SB-II-m-A-12094", "source": "INP", "source:link": "http://date.gov.ro/dataset/ghidul-muzeelor-din-romania", "start_date": "1817", "tourism": "museum", "tourism_survey": "13.01.2014 12:25:57", "website": "http://www.brukenthalmuseum.ro", "wikidata": "Q850207", "wikipedia": "ro:Muzeul Na\u021bional Brukenthal din Sibiu"}}, {"type": "node", "id": 2634652421, "lat": 45.796975, "lon": 24.14959, "tags": {"SIRUTA:code": "143469", "addr:city": "Sibiu", "addr:housenumber": "2", "addr:postcode": "550179", "addr:street": "Strada Mitropoliei", "codul_entit\u0103\u021bii_muzeale": "6966501.0", "description:ro": "Expozitia de istorie a fost deschisa in august 1959 ca sectie a Muzeului Brukenthal, la parterul palatului. Din 1988 muzeul functioneaza in Turnul Sfatului.", "fax": "0269/211.545", "heritage": "2", "heritage:operator": "lmi", "name": "Muzeul de Istorie Casa Altemberger", "name:en": "Altemberger House History Museum", "opening_hours": "10:00-18:00; Mo,Tu closed", "phone": "+40 269 218 143", "ref:RO:lmi": "SB-II-m-A-12134", "source": "INP", "source:link": "http://date.gov.ro/dataset/ghidul-muzeelor-din-romania", "start_date": "1959", "tourism": "museum", "tourism_survey": "29.10.2013 14:07:34", "website": "http://www.brukenthalmuseum.ro/", "wikidata": "Q12736107"}}, {"type": "node", "id": 2634652436, "lat": 45.7982688, "lon": 24.1521073, "tags": {"SIRUTA:code": "143469", "addr:city": "Sibiu", "addr:housenumber": "26", "addr:postcode": "550182", "addr:street": "Pia\u021ba Mic\u0103", "codul_entit\u0103\u021bii_muzeale": "6966503.0", "description:en": "The museum was founded in 1972. Previously on the premises functioned one of the oldest pharmacies in town, founded by 1600.", "description:ro": "Muzeul de Istorie a Farmaciei a fost infiintat in 1972, folosindu-se colectii adunate din toata tara.", "fax": "0269/211.545", "fee": "yes", "heritage": "2", "heritage:operator": "lmi", "name": "Expozi\u021bia de Istoria Farmaciei", "name:en": "History of Pharmacy Exhibition", "opening_hours": "Apr-Sep 09:00-17:00; Oct-Mar 10:00-16:00; Mo closed", "phone": "0269/218.191; 0269/211.545; 0269/213.156", "ref:RO:lmi": "SB-II-m-A-12128", "source": "INP", "source:link": "http://date.gov.ro/dataset/ghidul-muzeelor-din-romania", "start_date": "1972", "tourism": "museum", "tourism_survey": "19.09.2013 15:03:52", "website": "http://www.brukenthalmuseum.ro/"}}, {"type": "node", "id": 3054365870, "lat": 45.798416, "lon": 24.1520287, "tags": {"amenity": "pub", "email": "contact@bohemianflow.ro"}}, {"type": "node", "id": 3054365873, "lat": 45.7982679, "lon": 24.1487594, "tags": {"amenity": "restaurant", "check_date": "2024-08-16", "cuisine": "greek", "name": "Taverna Akropolis", "phone": "+40269 231 144", "website": "https://www.tavernaakropolis.ro/"}}, {"type": "node", "id": 3671191290, "lat": 45.7998236, "lon": 24.1512225, "tags": {"addr:city": "Sibiu", "addr:housenumber": "7", "addr:street": "Strada 9 Mai", "amenity": "restaurant", "cuisine": "regional", "name": "La Cuptor", "opening_hours": "Mo-Th 14:00-23:00; Fr,Sa 13:00-24:00; Su 13:00-23:00", "smoking": "outside"}}, {"type": "node", "id": 4029526443, "lat": 45.7954685, "lon": 24.1498503, "tags": {"addr:city": "Sibiu", "addr:housenumber": "1", "addr:street": "Strada Alexandru Xenopol", "amenity": "restaurant", "check_date:opening_hours": "2021-02-08", "cuisine": "steak_house", "description": "- We use legendary BLACK ANGUS BEEF maturated for at least 21 days, from cattle bred by \"Karpaten Meat\" on the natural pastures in Transylvania- We use a special JOSPER oven-grill with wood charcoal, unique in Transylvania, which gives a remarkable flavor", "email": "rezervari@benjaminsteakhouse.ro", "is_in:country": "Romania", "is_in:country_code": "RO", "name": "Benjamin Steakhouse & Bar", "opening_hours": "Mo-Su 10:00-24:00", "phone": "+40 369 454 415", "source": "Owner", "website": "https://benjaminsteakhouse.ro/"}}, {"type": "node", "id": 4029529691, "lat": 45.7941828, "lon": 24.1504002, "tags": {"addr:city": "Sibiu", "addr:housenumber": "21", "addr:postcode": "550159", "addr:street": "Strada Nicolae B\u0103lcescu", "amenity": "restaurant", "cuisine": "international", "description": "Business lunch, cina romantica sau doar o poveste la o cafea dupa o zi lunga? Restaurantul Enzo Ristorante e Caffe, localizat in centrul istoric al Sibiului, este conceput sa raspunda nevoilor voastre. Pastele, pizza, preparatele cu carne de vita Black An", "email": "rezervari@enzoristorante.ro", "is_in:country": "Romania", "is_in:country_code": "RO", "is_in:county": "Sibiu", "name": "Enzo Ristorante e Caffe", "opening_hours": "Mo-Su 09:00-23:00", "phone": "+40 369-807 227", "source": "Owner", "takeaway": "yes", "website": "www.enzoristorante.ro"}}, {"type": "node", "id": 4327989520, "lat": 45.797114, "lon": 24.1557112}, {"type": "node", "id": 4327989523, "lat": 45.7970617, "lon": 24.1556204}, {"type": "node", "id": 4364437129, "lat": 45.7932583, "lon": 24.1472069, "tags": {"addr:city": "Sibiu", "artwork_type": "bust", "image": "https://photos.app.goo.gl/yqD8a9nF2GUCk9569", "name": "Gheorghe Laz\u0103r 1779 \u20131823", "tourism": "artwork", "wikidata": "Q952971", "wikipedia": "ro:Gheorghe Laz\u0103r"}}, {"type": "node", "id": 4364437130, "lat": 45.7932495, "lon": 24.1474127, "tags": {"addr:city": "Sibiu", "artwork_type": "bust", "image": "https://photos.app.goo.gl/2aLR5YHUz69y4Lx98", "name": "Gheorghe'a Bari\u021biu 1812 - 1893", "tourism": "artwork", "wikidata": "Q445042", "wikipedia": "ro:George Bari\u021biu"}}, {"type": "node", "id": 4364446745, "lat": 45.7935899, "lon": 24.1465505, "tags": {"addr:city": "Sibiu", "artwork_type": "bust", "image": "https://photos.app.goo.gl/rM3QvGwVVrPdXmxbA", "name": "Octavian Goga 1881-1938", "tourism": "artwork", "wikidata": "Q223414", "wikipedia": "ro:Octavian Goga"}}, {"type": "node", "id": 4364453326, "lat": 45.79343, "lon": 24.146863, "tags": {"addr:city": "Sibiu", "artwork_type": "bust", "image": "https://photos.app.goo.gl/jAvwEzWRc1VSa7st5", "name": "Badea C\u00e2r\u021ban 1849-1911", "tourism": "artwork"}}, {"type": "node", "id": 4364465097, "lat": 45.7935154, "lon": 24.1469539, "tags": {"addr:city": "Sibiu", "artwork_type": "bust", "image": "https://photos.app.goo.gl/MDNysT84nWpSassW8", "name": "August Treboniu Laurian 1810 -1881", "tourism": "artwork"}}, {"type": "node", "id": 4364465098, "lat": 45.7936767, "lon": 24.1466249, "tags": {"historic": "monument", "name": "Bustul lui Emanuil Gojdu"}}, {"type": "node", "id": 4364479100, "lat": 45.7935456, "lon": 24.1474897, "tags": {"historic": "monument", "name": "Bustul lui Ioan Slavici"}}, {"type": "node", "id": 4366419953, "lat": 45.7945456, "lon": 24.14544, "tags": {"addr:city": "Sibiu", "addr:housenumber": "2", "addr:postcode": "550176", "addr:street": "Strada Doctor Ioan Lupa\u0219", "amenity": "restaurant", "cuisine": "regional;italian", "name": "Il Calcetto"}}, {"type": "node", "id": 4374218397, "lat": 45.7968593, "lon": 24.1539457}, {"type": "node", "id": 4374218398, "lat": 45.7968202, "lon": 24.1540551}, {"type": "node", "id": 4374218399, "lat": 45.7968043, "lon": 24.1540905}, {"type": "node", "id": 4374218400, "lat": 45.796767, "lon": 24.1540552}, {"type": "node", "id": 4374218401, "lat": 45.7966314, "lon": 24.1543216}, {"type": "node", "id": 4374218402, "lat": 45.7965909, "lon": 24.154254}, {"type": "node", "id": 4374218403, "lat": 45.7967098, "lon": 24.1541286}, {"type": "node", "id": 4374229000, "lat": 45.7965564, "lon": 24.1542488}, {"type": "node", "id": 4374229003, "lat": 45.7966962, "lon": 24.1541027}, {"type": "node", "id": 4392032289, "lat": 45.7986057, "lon": 24.1511644}, {"type": "node", "id": 4392032290, "lat": 45.7984537, "lon": 24.1511785}, {"type": "node", "id": 4392034454, "lat": 45.7984932, "lon": 24.1511777}, {"type": "node", "id": 4392276649, "lat": 45.7973021, "lon": 24.1558556}, {"type": "node", "id": 4392276650, "lat": 45.7972775, "lon": 24.1558922}, {"type": "node", "id": 4400951973, "lat": 45.7972432, "lon": 24.1558885}, {"type": "node", "id": 4400951974, "lat": 45.7971894, "lon": 24.1558004}, {"type": "node", "id": 4400951975, "lat": 45.7971752, "lon": 24.1558173}, {"type": "node", "id": 4432196983, "lat": 45.7951218, "lon": 24.152765, "tags": {"addr:city": "Sibiu", "addr:housenumber": "9", "addr:street": "Strada Timotei Popovici", "amenity": "restaurant", "check_date": "2025-08-27", "check_date:smoking": "2025-08-27", "cuisine": "german", "name": "Hochmeister", "opening_hours": "Mo-Su 12:00-23:00", "phone": "+40771335577", "smoking": "outside"}}, {"type": "node", "id": 4649165291, "lat": 45.7977299, "lon": 24.1512192, "tags": {"addr:city": "Sibiu", "addr:housenumber": "12", "addr:place": "Pia\u021ba Mic\u0103", "amenity": "restaurant", "cuisine": "regional;fish_and_chips", "name": "Kulinarium", "name:ro": "Kulinarium", "opening_hours": "Mo-Su 12:00-23:00"}}, {"type": "node", "id": 4649252689, "lat": 45.7958398, "lon": 24.1518305, "tags": {"addr:city": "Sibiu", "addr:housenumber": "2", "addr:street": "Strada Arhivelor", "amenity": "cafe", "check_date": "2024-08-31", "contact:facebook": "https://www.facebook.com/ArhivaDeCafeaSiCeai", "cuisine": "coffee_shop;tea", "email": "arhiva.decafea@yahoo.com", "name": "Arhiva de Cafea \u0219i Ceai", "opening_hours": "Mo-Th 09:00-17:30; Fr 09:00-19:00; Sa 10:00-19:00; Su 10:00-17:30", "outdoor_seating": "yes", "phone": "+40 746 886 229"}}, {"type": "node", "id": 5005521623, "lat": 45.798232, "lon": 24.149708, "tags": {"amenity": "restaurant", "cuisine": "german;regional", "name": "Weinkeller", "name:en": "Weinkeller", "name:ro": "Pivni\u021ba de vinuri", "opening_hours": "Mo-Su 12:00-00:00", "phone": "0269210319", "smoking": "no"}}, {"type": "node", "id": 5032660366, "lat": 45.7972351, "lon": 24.1474194, "tags": {"addr:city": "Sibiu", "addr:housenumber": "8", "addr:postcode": "550195", "addr:street": "Strada T\u00e2rgul Pe\u0219telui", "amenity": "restaurant", "cuisine": "regional;international", "name": "Restaurant - Terasa Teatro", "outdoor_seating": "yes", "phone": "+40 369 427 711", "website": "https://www.teatrosibiu.ro/"}}, {"type": "node", "id": 5088148524, "lat": 45.798471, "lon": 24.1510148, "tags": {"addr:city": "Sibiu", "addr:street": "Pia\u021ba Mic\u0103", "amenity": "bar", "name": "Crama Na\u021bional", "name:ro": "Crama na\u021bional", "outdoor_seating": "yes", "smoking": "outside"}}, {"type": "node", "id": 5088214621, "lat": 45.794609, "lon": 24.15156, "tags": {"amenity": "restaurant", "name": "Plai"}}, {"type": "node", "id": 5273312148, "lat": 45.7971993, "lon": 24.1525212, "tags": {"addr:city": "Sibiu", "addr:housenumber": "16", "addr:street": "Pia\u021ba Mare", "air_conditioning": "yes", "amenity": "cafe", "brand": "Starbucks", "brand:wikidata": "Q37158", "brand:wikipedia": "en:Starbucks", "check_date:opening_hours": "2024-10-29", "cuisine": "coffee_shop", "diet:vegan": "yes", "diet:vegetarian": "yes", "internet_access": "wlan", "internet_access:fee": "yes", "name": "Starbucks", "official_name": "Starbucks Coffee", "opening_hours": "Mo-Su 08:00-21:00", "smoking": "outside", "takeaway": "yes"}}, {"type": "node", "id": 5479703134, "lat": 45.7973149, "lon": 24.1517499, "tags": {"addr:city": "Sibiu", "artwork_type": "statue", "material": "stone", "name:de": "hl. Johannes von Nepomuk", "name:hu": "Nepomuki Szent J\u00e1nos", "name:ro": "Sf. Ioan Nepomuk", "tourism": "artwork", "wikimedia_commons": "Category:Statue of John of Nepomuk in Sibiu, parish house", "wikipedia": "ro:Statuia lui Ioan Nepomuk din Sibiu"}}, {"type": "node", "id": 5720087321, "lat": 45.7999285, "lon": 24.1563806, "tags": {"addr:city": "Sibiu", "addr:housenumber": "60", "addr:postcode": "550201", "addr:street": "Strada 9 Mai", "amenity": "restaurant", "contact:email": "office@restaurantgrandplazasb.ro;comenzi@restaurantgrandplazasb.ro", "contact:facebook": "https://www.facebook.com/Grand-Plaza-Restaurant-Sibiu-368855906462798", "contact:phone": "+40 269 210427;+40 744 706553", "contact:tripadvisor": "https://www.tripadvisor.com/Restaurant_Review-g295393-d1106449-Reviews-Grand_Plaza-Sibiu_Sibiu_County_Central_Romania_Transylvania.html", "contact:website": "https://restaurantgrandplazasb.ro/", "cuisine": "regional;italian", "diet:vegetarian": "yes", "internet_access": "wlan", "name": "Grand Plaza", "opening_hours": "Mo-Su 09:30-22:00"}}, {"type": "node", "id": 5736505523, "lat": 45.7942411, "lon": 24.1500913, "tags": {"amenity": "cafe", "check_date": "2025-05-09", "cuisine": "regional", "name": "Hug the Mug", "opening_hours": "Mo-Fr 07:30-20:00; Sa-Su 09:00-21:00"}}, {"type": "node", "id": 5736505524, "lat": 45.7981942, "lon": 24.1521249, "tags": {"addr:city": "Sibiu", "addr:housenumber": "27", "addr:street": "Pia\u021ba Mic\u0103", "amenity": "cafe", "cuisine": "regional", "name": "NOD Pub", "opening_hours": "Mo-Fr 09:00-00:00; Sa-Su 10:00-00:00"}}, {"type": "node", "id": 5736505525, "lat": 45.7979773, "lon": 24.1521512, "tags": {"addr:city": "Sibiu", "addr:housenumber": "30", "addr:street": "Pia\u021ba Mic\u0103", "amenity": "cafe", "cuisine": "regional", "name": "Lili's Cafe", "opening_hours": "Mo-Su 10:00-00:00"}}, {"type": "node", "id": 5736568021, "lat": 45.7948833, "lon": 24.1533905, "tags": {"amenity": "cafe", "check_date:opening_hours": "2021-08-15", "cuisine": "german;regional;international", "name": "Hei\u00df-Eis Caf\u00e8", "opening_hours": "Mo-Su 09:00-20:00", "smoking": "outside"}}, {"type": "node", "id": 5736586521, "lat": 45.7995931, "lon": 24.1526794, "tags": {"addr:city": "Sibiu", "addr:housenumber": "10", "addr:street": "Strada T\u00e2rgului", "amenity": "restaurant", "check_date:opening_hours": "2020-12-05", "cuisine": "regional", "name": "Syndicat Gourmet", "opening_hours": "Tu-Su 13:00-23:00", "outdoor_seating": "terrace", "website": "https://syndicatgourmet.ro/"}}, {"type": "node", "id": 5826805784, "lat": 45.7967958, "lon": 24.1502489, "tags": {"addr:city": "Sibiu", "addr:housenumber": "3", "addr:street": "Strada Samuel Brukenthal", "amenity": "cafe", "dish": "kebab", "name": "Amor Perfecto"}}, {"type": "node", "id": 5842961476, "lat": 45.7980243, "lon": 24.1490678, "tags": {"addr:city": "Sibiu", "addr:housenumber": "6", "addr:street": "Strada Mo\u0219 Ion Roat\u0103", "amenity": "restaurant", "name": "Casa Grinda", "opening_hours": "Tu-Su 10:30-23:30"}}, {"type": "node", "id": 5845038668, "lat": 45.7961861, "lon": 24.1501302, "tags": {"exhibit": "artwork", "historic": "monument", "historic:civilization": "roman", "name": "Hecate Triformis"}}, {"type": "node", "id": 5845093352, "lat": 45.7960869, "lon": 24.1499842, "tags": {"addr:city": "Sibiu", "addr:street": "Pia\u021ba Mare", "historic": "monument"}}, {"type": "node", "id": 5848058133, "lat": 45.7949995, "lon": 24.1548067}, {"type": "node", "id": 5848058134, "lat": 45.7950027, "lon": 24.1548128}, {"type": "node", "id": 5848058135, "lat": 45.7949344, "lon": 24.1548869}, {"type": "node", "id": 5848058136, "lat": 45.7949302, "lon": 24.154879}, {"type": "node", "id": 5848058137, "lat": 45.7948921, "lon": 24.1546245}, {"type": "node", "id": 5848058138, "lat": 45.7948229, "lon": 24.1546583}, {"type": "node", "id": 5848058139, "lat": 45.7948379, "lon": 24.1546867}, {"type": "node", "id": 5848058140, "lat": 45.7948782, "lon": 24.1545982}, {"type": "node", "id": 5848067519, "lat": 45.7947557, "lon": 24.1544203, "tags": {"addr:city": "Sibiu", "addr:housenumber": "1", "addr:street": "Strada Cet\u0103\u021bii", "check_date": "2023-06-08", "exhibit": "geology", "fee": "yes", "museum": "open_air", "name": "Expozi\u021bia Dinozaurii din Gr\u0103din\u0103", "name:en": "Dinosaurs from the Garden Exhibition", "opening_hours": "We-Su 10:00-18:00", "tourism": "museum", "website": "https://www.brukenthalmuseum.ro/sectoare/naturale"}}, {"type": "node", "id": 5860149909, "lat": 45.794852, "lon": 24.1546267, "tags": {"entrance": "main"}}, {"type": "node", "id": 5860275392, "lat": 45.7948146, "lon": 24.1507102, "tags": {"addr:city": "Sibiu", "addr:housenumber": "3", "addr:street": "Strada Telefoanelor", "amenity": "restaurant", "drive_through": "no", "name": "Bistro Fish & Wine", "outdoor_seating": "yes", "smoking": "outside"}}, {"type": "node", "id": 5860289448, "lat": 45.7951231, "lon": 24.1507219, "tags": {"addr:city": "Sibiu", "addr:housenumber": "11", "addr:street": "Strada Nicolae B\u0103lcescu", "amenity": "restaurant", "check_date:opening_hours": "2023-04-01", "diet:vegetarian": "yes", "indoor_seating": "yes", "name": "Fain", "opening_hours": "Mo-Su 12:00-24:00", "outdoor_seating": "yes"}}, {"type": "node", "id": 5860303987, "lat": 45.7947206, "lon": 24.1502219, "tags": {"addr:city": "Sibiu", "addr:housenumber": "12", "addr:street": "Strada Nicolae B\u0103lcescu", "amenity": "bar", "name": "Bar La Etaj", "outdoor_seating": "yes", "smoking": "outside"}}, {"type": "node", "id": 5860307031, "lat": 45.7962134, "lon": 24.1520098, "tags": {"addr:city": "Sibiu", "addr:housenumber": "9", "addr:street": "Pia\u021ba Mare", "amenity": "restaurant", "check_date:opening_hours": "2025-01-02", "cuisine": "regional;french;german", "indoor_seating": "yes", "name": "Joben Monsieur", "opening_hours": "Mo-Su 10:00-23:00", "outdoor_seating": "yes", "smoking": "outside"}}, {"type": "node", "id": 5861291299, "lat": 45.7932698, "lon": 24.151907, "tags": {"addr:city": "Sibiu", "artwork_type": "bust", "image": "https://photos.app.goo.gl/Z9u8JS9LYx2hgA2j8", "name": "Monumentul Francisc I", "name:en": "Emperor Franz II & I of Austria Monument", "tourism": "artwork"}}, {"type": "node", "id": 5861308747, "lat": 45.796975, "lon": 24.1538076, "tags": {"addr:city": "Sibiu", "addr:housenumber": "8", "addr:street": "Strada General Magheru", "amenity": "cafe", "cuisine": "coffee_shop", "name": "5 to go"}}, {"type": "node", "id": 5863617894, "lat": 45.794048, "lon": 24.1469064, "tags": {"amenity": "cafe", "name": "Consomm\u00e9"}}, {"type": "node", "id": 5863649085, "lat": 45.7985651, "lon": 24.1517198, "tags": {"addr:city": "Sibiu", "addr:housenumber": "23", "addr:street": "Pia\u021ba Mic\u0103", "amenity": "restaurant", "cuisine": "regional;international;italian;mediterranean", "diet:vegetarian": "yes", "name": "Tango Restaurant & Pub", "opening_hours": "Mo-Su 11:00-00:00"}}, {"type": "node", "id": 5891871175, "lat": 45.7985032, "lon": 24.151937, "tags": {"addr:city": "Sibiu", "addr:housenumber": "24", "addr:street": "Pia\u021ba Mic\u0103", "amenity": "cafe", "cuisine": "regional", "name": "Arcade", "outdoor_seating": "yes", "smoking": "outside"}}, {"type": "node", "id": 5898577905, "lat": 45.7979686, "lon": 24.1494476, "tags": {"addr:city": "Sibiu", "addr:street": "Strada Turnului", "amenity": "restaurant", "cuisine": "regional;international", "name": "Butoiul de Aur", "opening_hours": "Mo-Su 12:00-24:00", "outdoor_seating": "yes", "smoking": "outside"}}, {"type": "node", "id": 5898580989, "lat": 45.7979442, "lon": 24.1496863, "tags": {"addr:city": "Sibiu", "addr:housenumber": "3", "addr:street": "Pia\u021ba Huet", "historic": "monument", "image": "https://photos.app.goo.gl/z4iP5BYhgnCe6kag7", "name": "St\u00e2lpul Calfelor", "tourism": "attraction"}}, {"type": "node", "id": 5899981631, "lat": 45.7969987, "lon": 24.1489813, "tags": {"addr:city": "Sibiu", "addr:housenumber": "2", "addr:street": "Strada Mitropoliei", "building:architecture": "gothic", "historic": "monument", "historic:period": "medieval", "name": "Loggia Altemberger", "tourism": "attraction"}}, {"type": "node", "id": 5900058213, "lat": 45.797726, "lon": 24.152675, "tags": {"addr:city": "Sibiu", "addr:housenumber": "4", "addr:street": "Strada Avram Iancu", "amenity": "bar", "check_date": "2025-05-10", "name": "Geea Caffe", "smoking": "outside"}}, {"type": "node", "id": 5919767075, "lat": 45.7964039, "lon": 24.1492495, "tags": {"addr:city": "Sibiu", "addr:housenumber": "6", "addr:street": "Strada Mitropoliei", "amenity": "restaurant", "cuisine": "french;regional;international", "name": "Jules Bistro", "outdoor_seating": "yes", "smoking": "outside"}}, {"type": "node", "id": 5941610799, "lat": 45.8003129, "lon": 24.1505588, "tags": {"addr:city": "Sibiu", "addr:housenumber": "18", "addr:street": "Strada Ocnei", "amenity": "cafe", "cuisine": "coffee_shop;regional", "name": "146ilovecoffee", "smoking": "outside"}}, {"type": "node", "id": 5941616122, "lat": 45.79793, "lon": 24.1512166, "tags": {"addr:city": "Sibiu", "addr:housenumber": "14", "addr:street": "Pia\u021ba Mic\u0103", "amenity": "restaurant", "cuisine": "regional;international", "name": "Schoko", "outdoor_seating": "yes", "smoking": "outside"}}, {"type": "node", "id": 5941734043, "lat": 45.7982479, "lon": 24.1484118, "tags": {"addr:city": "Sibiu", "addr:housenumber": "16", "addr:street": "Strada T\u00e2rgu Vinului", "amenity": "restaurant", "name": "Spic", "opening_hours": "Mo-Su 12:00-23:00"}}, {"type": "node", "id": 5947081933, "lat": 45.7968394, "lon": 24.1530292, "tags": {"addr:city": "Sibiu", "addr:housenumber": "1-3", "addr:street": "Strada General Magheru", "amenity": "bar", "name": "Journal Caf\u00e9", "outdoor_seating": "yes", "smoking": "outside"}}, {"type": "node", "id": 5947176420, "lat": 45.7964863, "lon": 24.1527361, "tags": {"addr:city": "Sibiu", "addr:housenumber": "2", "addr:street": "Strada General Magheru", "amenity": "bar", "bar": "juice", "check_date": "2025-05-09", "name": "The Refresh", "outdoor_seating": "yes", "smoking": "outside"}}, {"type": "node", "id": 5947204506, "lat": 45.7963909, "lon": 24.1524739, "tags": {"addr:city": "Sibiu", "addr:housenumber": "11", "addr:street": "Pia\u021ba Mare", "amenity": "restaurant", "cuisine": "regional;international", "diet:vegan": "yes", "diet:vegetarian": "yes", "indoor_seating": "yes", "name": "The Rabbit Hole", "opening_hours": "Mo-Su 08:30-24:00", "outdoor_seating": "yes", "smoking": "outside"}}, {"type": "node", "id": 5947204893, "lat": 45.796299, "lon": 24.1522443, "tags": {"addr:city": "Sibiu", "addr:housenumber": "10", "addr:postcode": "550163", "addr:street": "Pia\u021ba Mare", "amenity": "restaurant", "cuisine": "regional", "indoor_seating": "yes", "name": "La Taifas", "opening_hours": "Mo-Su 12:00-23:00", "outdoor_seating": "yes", "phone": "+40728904034", "smoking": "outside"}}, {"type": "node", "id": 5947230536, "lat": 45.7957479, "lon": 24.1512464, "tags": {"addr:city": "Sibiu", "addr:housenumber": "1-3", "addr:street": "Strada Nicolae B\u0103lcescu", "amenity": "cafe", "name": "Turtha"}}, {"type": "node", "id": 5970723319, "lat": 45.7985484, "lon": 24.1499915}, {"type": "node", "id": 5970723320, "lat": 45.7983969, "lon": 24.1499708}, {"type": "node", "id": 5970723321, "lat": 45.798419, "lon": 24.1500224}, {"type": "node", "id": 5970723322, "lat": 45.7984503, "lon": 24.1499957}, {"type": "node", "id": 5970723323, "lat": 45.7984674, "lon": 24.1500381}, {"type": "node", "id": 5970723324, "lat": 45.7984993, "lon": 24.1500543}, {"type": "node", "id": 5970723325, "lat": 45.7985315, "lon": 24.1500288}, {"type": "node", "id": 5970723326, "lat": 45.7985391, "lon": 24.1499185}, {"type": "node", "id": 5970723327, "lat": 45.7985164, "lon": 24.1499373}, {"type": "node", "id": 5970723328, "lat": 45.798541, "lon": 24.1500404}, {"type": "node", "id": 5970723329, "lat": 45.798536, "lon": 24.1500494}, {"type": "node", "id": 5970723330, "lat": 45.7985267, "lon": 24.1500368}, {"type": "node", "id": 5970723331, "lat": 45.7984995, "lon": 24.1500694}, {"type": "node", "id": 5970723332, "lat": 45.798508, "lon": 24.150069}, {"type": "node", "id": 5970723333, "lat": 45.7985072, "lon": 24.1500531}, {"type": "node", "id": 5970723334, "lat": 45.7984596, "lon": 24.1500516}, {"type": "node", "id": 5970723335, "lat": 45.7984661, "lon": 24.1500588}, {"type": "node", "id": 5970723336, "lat": 45.7984735, "lon": 24.1500456}, {"type": "node", "id": 5970723337, "lat": 45.7985363, "lon": 24.1499938}, {"type": "node", "id": 5970723338, "lat": 45.7985475, "lon": 24.1499817}, {"type": "node", "id": 5970723339, "lat": 45.7985349, "lon": 24.1499834}, {"type": "node", "id": 5970737131, "lat": 45.7981639, "lon": 24.1529343, "tags": {"addr:city": "Sibiu", "addr:housenumber": "9", "addr:street": "Strada Avram Iancu", "amenity": "cafe", "name": "Charlie's", "opening_hours": "Mo-Su 09:00-17:00"}}, {"type": "node", "id": 5974002218, "lat": 45.7994425, "lon": 24.1509393, "tags": {"addr:city": "Sibiu", "addr:housenumber": "4", "addr:street": "Strada 9 Mai", "amenity": "restaurant", "cuisine": "vietnamese", "name": "To\u00e1n's", "opening_hours": "Mo-Su 10:00-22:00", "smoking": "outside"}}, {"type": "node", "id": 5974005604, "lat": 45.7989678, "lon": 24.1569941, "tags": {"addr:city": "Sibiu", "addr:street": "Strada General Magheru", "amenity": "bar", "name": "Bar la Cartagianu", "outdoor_seating": "yes", "smoking": "outside"}}, {"type": "node", "id": 5974018020, "lat": 45.7985952, "lon": 24.151899, "tags": {"addr:city": "Sibiu", "addr:housenumber": "23", "addr:street": "Pia\u021ba Mic\u0103", "amenity": "cafe", "cuisine": "regional", "name": "Museum Cafe", "outdoor_seating": "yes", "smoking": "outside"}}, {"type": "node", "id": 6034980316, "lat": 45.7976004, "lon": 24.1521283, "tags": {"addr:city": "Sibiu", "tourism": "viewpoint", "tower:type": "watchtower"}}, {"type": "node", "id": 6054061703, "lat": 45.7962993, "lon": 24.1563369, "tags": {"amenity": "bar", "name": "Bistro Ursanu"}}, {"type": "node", "id": 6054061710, "lat": 45.7964406, "lon": 24.1493245, "tags": {"amenity": "restaurant", "cuisine": "regional;french", "name": "Restaurant Vincent"}}, {"type": "node", "id": 6054061894, "lat": 45.7993932, "lon": 24.1507778, "tags": {"addr:city": "Sibiu", "addr:housenumber": "2", "addr:street": "Strada 9 Mai", "amenity": "cafe", "cuisine": "regional;german", "name": "Caffe Osterreich"}}, {"type": "node", "id": 6054062886, "lat": 45.7982296, "lon": 24.1531896, "tags": {"addr:city": "Sibiu", "addr:country": "RO", "addr:housenumber": "11", "addr:street": "Strada Avram Iancu", "amenity": "pub", "name": "St. Andrew's Scottish Pub", "opening_hours": "Fr,Sa 18:00-02:00, Su-Th 18:00-01:00", "outdoor_seating": "yes", "smoking": "outside"}}, {"type": "node", "id": 6054063204, "lat": 45.7941233, "lon": 24.1500124, "tags": {"amenity": "cafe", "cuisine": "coffee", "name": "Alexander Caffe"}}, {"type": "node", "id": 6054064588, "lat": 45.7982416, "lon": 24.1488199, "tags": {"amenity": "restaurant"}}, {"type": "node", "id": 6534941086, "lat": 45.7971683, "lon": 24.151374, "tags": {"amenity": "cafe", "cuisine": "regional", "name": "Cafeneaua di librare", "name:ro": "Cafeneaua din librare"}}, {"type": "node", "id": 6551718793, "lat": 45.797619, "lon": 24.150977, "tags": {"addr:city": "Sibiu", "addr:postcode": "550182", "description:en": "ASTRA Museum was established in 1905 by the Transylvanian Association for the literature and culture of the Romanian people. In 1950 it was closed down, and its collections were included in Brukenthal Museum. Currently, the museum complex comprises sev...", "description:ro": "Muzeul ASTRA, cea mai importanta institutie fondata de Asociatiunea Transilvana pentru Literatura Romana si Cultura Poporului Roman, a fost inaugurat in 19 august 1905. El s-a nascut din dorinta romanilor ardeleni de a-si defini propria identitate etno...", "email": "office@muzeulastra.ro", "fax": "(+40) 269202411", "fixme": "check of month boundaries for opening_hours are correct", "foundation_date": "1963", "name": "Complexul National Muzeal ASTRA", "name:en": "ASTRA National Museum Complex", "opening_hours": "Mo-Fr 10:00-18:00; Apr-Oct Sa-Su 10:00-20:00; Nov-Mar Sa-Su 9:00 - 17:00", "phone": "(+40) 269202400", "ref:codul_entita\u021bii_muzeale": "6966502", "reviewed": "no", "tourism": "museum", "website": "http://www.muzeulastra.ro;http://www.muzeulastra.com", "wikipedia": "ro:Muzeul Civiliza\u021biei Populare Tradi\u021bionale \u201eASTRA\u201d din Sibiu"}}, {"type": "node", "id": 6681010782, "lat": 45.7987929, "lon": 24.1471483, "tags": {"addr:city": "Sibiu", "addr:housenumber": "24", "addr:postcode": "550197", "addr:street": "Strada Turnului", "amenity": "cafe", "bar": "yes", "capacity": "20", "cuisine": "coffee_shop;sandwich;french", "internet_access": "wlan", "internet_access:fee": "yes", "name": "Petit Patis", "opening_hours": "Mo-Su 08:00-20:00", "outdoor_seating": "yes", "payment:cash": "yes", "payment:credit_cards": "yes", "payment:mastercard": "yes", "payment:visa": "yes"}}, {"type": "node", "id": 6900793118, "lat": 45.7974552, "lon": 24.1526216, "tags": {"amenity": "restaurant", "cuisine": "regional", "name": "Vila Weidner", "opening_hours": "Mo-Su 08:00-24:00"}}, {"type": "node", "id": 6924739158, "lat": 45.7983957, "lon": 24.1513981, "tags": {"camera:mount": "wall", "camera:type": "panning", "check_date": "2023-12-25", "man_made": "surveillance", "surveillance": "outdoor", "surveillance:type": "camera"}}, {"type": "node", "id": 7204270474, "lat": 45.797515, "lon": 24.1500475}, {"type": "node", "id": 7204270475, "lat": 45.7974839, "lon": 24.1500476}, {"type": "node", "id": 7204270476, "lat": 45.797484, "lon": 24.1500959}, {"type": "node", "id": 7204270477, "lat": 45.7975151, "lon": 24.1500959}, {"type": "node", "id": 7903208986, "lat": 45.796836, "lon": 24.1500451, "tags": {"amenity": "cafe", "contact:facebook": "https://www.facebook.com/lumoscoffeebrunch/", "contact:instagram": "https://www.instagram.com/lumoscoffeebrunch/", "name": "Lumos", "name:en": "Lumos Specialty Coffee", "opening_hours": "Mo-Th 08:00-18:00; Fr-Su 08:00-22:00", "outdoor_seating": "yes"}}, {"type": "node", "id": 7903322585, "lat": 45.800802, "lon": 24.150244, "tags": {"amenity": "cafe", "name": "Frentz", "smoking": "outside"}}, {"type": "node", "id": 7904099485, "lat": 45.7975378, "lon": 24.1544013, "tags": {"amenity": "cafe", "name": "lacafei", "name:en": "Lacafei Specialty Coffee", "opening_hours": "Mo-Fr 07:00-17:00; Sa,Su 10:00-18:00"}}, {"type": "node", "id": 7905446985, "lat": 45.7981684, "lon": 24.148004, "tags": {"amenity": "bar", "name": "Wine not?", "name:en": "Wine Not?"}}, {"type": "node", "id": 9005501058, "lat": 45.7982643, "lon": 24.1534003, "tags": {"amenity": "cafe", "name": "Deli n\u00b011", "opening_hours": "Mo-Sa 09:00-17:00; Su 10:00-16:00"}}, {"type": "node", "id": 9634947629, "lat": 45.7958867, "lon": 24.1517738, "tags": {"amenity": "cafe", "name": "Meron"}}, {"type": "node", "id": 9966530705, "lat": 45.7978493, "lon": 24.1509826, "tags": {"amenity": "cafe", "indoor_seating": "yes", "name": "Einstein", "outdoor_seating": "yes"}}, {"type": "node", "id": 10234066317, "lat": 45.7985815, "lon": 24.1518386, "tags": {"amenity": "bar", "name:en": "Music Club"}}, {"type": "node", "id": 10719706017, "lat": 45.7946772, "lon": 24.1510807, "tags": {"amenity": "restaurant", "name": "Ribs and Beer", "opening_hours": "Mo,Tu 16:00-24:00, We-Su 13:00-24:00", "smoking": "outside"}}, {"type": "node", "id": 11079585711, "lat": 45.7938838, "lon": 24.1498021, "tags": {"addr:city": "Sibiu", "addr:housenumber": "26", "addr:street": "Strada Nicolae B\u0103lcescu", "amenity": "cafe", "cuisine": "coffee_shop", "indoor_seating": "yes", "name": "TED'S COFFEE CO.", "opening_hours": "Mo-Fr 07:30-20:30; Sa-Su 08:30-20:30", "outdoor_seating": "yes"}}, {"type": "node", "id": 11244152621, "lat": 45.7986432, "lon": 24.1466932, "tags": {"addr:city": "Sibiu", "addr:housenumber": "17", "addr:street": "Strada Turnului", "amenity": "restaurant", "contact:facebook": "https://www.facebook.com/KonakSibiu/", "contact:instagram": "https://www.instagram.com/konakpensiune/", "email": "office@konak.ro", "mobile": "+40 775 544 527", "name": "Restaurant Konak", "website": "https://www.konak.ro/", "website:menu": "https://www.konak.ro/meniu/"}}, {"type": "node", "id": 11478842577, "lat": 45.795922, "lon": 24.1514197, "tags": {"addr:city": "Sibiu", "amenity": "cafe", "cuisine": "coffee_shop", "internet_access": "wlan", "name": "Meron", "outdoor_seating": "yes", "website": "https://meron.ro/"}}, {"type": "node", "id": 11975962066, "lat": 45.8014251, "lon": 24.1505908, "tags": {"addr:city": "Sibiu", "addr:housenumber": "30", "addr:street": "Strada Ocnei", "amenity": "restaurant", "name": "Lili's Sibiu", "opening_hours": "Mo-Su 10:00-24:00", "phone": "+40729634150", "website": "https://liliscafe.ro/"}}, {"type": "node", "id": 12094921775, "lat": 45.797592, "lon": 24.1518849, "tags": {"amenity": "restaurant", "name": "La Turn"}}, {"type": "node", "id": 12110518869, "lat": 45.7942394, "lon": 24.1532103, "tags": {"addr:city": "Sibiu", "fee": "yes", "name": "Turnul Dulgherilor", "tourism": "museum"}}, {"type": "node", "id": 12110566450, "lat": 45.7975529, "lon": 24.1521972, "tags": {"historic": "memorial", "memorial": "plaque"}}, {"type": "node", "id": 12110602175, "lat": 45.7986118, "lon": 24.1505021, "tags": {"amenity": "cafe", "name": "Caf\u00e9 des Artistes"}}, {"type": "node", "id": 12115192356, "lat": 45.7982949, "lon": 24.1552945, "tags": {"addr:city": "Sibiu", "artwork_type": "statue", "tourism": "artwork"}}, {"type": "node", "id": 12115212907, "lat": 45.796561, "lon": 24.1508672, "tags": {"addr:city": "Sibiu", "artwork_type": "statue", "image": "https://photos.app.goo.gl/VkTiEPnMq9TLgBo6Ahttps://photos.app.goo.gl/v1H7FrFHvTkF7XFx9", "name": "Samuel von Brukenthal", "tourism": "artwork"}}, {"type": "node", "id": 12115231970, "lat": 45.7954008, "lon": 24.1474603, "tags": {"addr:city": "Sibiu", "artwork_type": "bust", "tourism": "artwork"}}, {"type": "node", "id": 12115371209, "lat": 45.7980907, "lon": 24.148783, "tags": {"amenity": "restaurant", "cuisine": "korean", "name": "Basak"}}, {"type": "node", "id": 12115386258, "lat": 45.7981157, "lon": 24.1487251, "tags": {"amenity": "cafe", "name": "2 Friends"}}, {"type": "node", "id": 12212074203, "lat": 45.797406, "lon": 24.1526093, "tags": {"amenity": "bar", "name": "La Piazetta"}}, {"type": "node", "id": 12259238338, "lat": 45.7980628, "lon": 24.1521377, "tags": {"amenity": "cafe"}}, {"type": "node", "id": 12817249972, "lat": 45.7977684, "lon": 24.1476895, "tags": {"addr:city": "Sibiu", "addr:housenumber": "6", "addr:postcode": "550191", "addr:street": "Strada T\u00e2rgu Vinului", "amenity": "restaurant", "contact:instagram": "ouasiunt.sibiu", "diet:vegan": "limited", "diet:vegetarian": "yes", "name": "Ou\u0103 \u0219i Unt", "opening_hours": "We-Su 09:00-15:00"}}, {"type": "node", "id": 13100316452, "lat": 45.7981791, "lon": 24.1485611, "tags": {"amenity": "restaurant", "name": "Charlies"}}, {"type": "node", "id": 13103131040, "lat": 45.7998374, "lon": 24.1509154, "tags": {"addr:city": "Sibiu", "addr:housenumber": "5", "addr:street": "Strada 9 Mai", "amenity": "restaurant", "cuisine": "indian", "name": "Tajmah\u00e2l", "opening_hours": "Mo-Sa 12:00-23:00; Su 13:00-22:00", "phone": "+40 758 967652", "smoking": "outside"}}, {"type": "node", "id": 13103152106, "lat": 45.7991949, "lon": 24.1506981, "tags": {"addr:city": "Sibiu", "addr:housenumber": "12", "addr:street": "Strada Ocnei", "amenity": "restaurant", "cuisine": "indian", "name": "Soul", "opening_hours": "Tu-Su 12:00-22:00", "phone": "+40 770 653482"}}, {"type": "node", "id": 13103155048, "lat": 45.7993029, "lon": 24.1504142, "tags": {"addr:city": "Sibiu", "addr:housenumber": "20", "addr:street": "Strada Faurului", "amenity": "cafe", "name": "Perfect Bite", "opening_hours": "Mo-Fr 07:30-16:00; Sa, Su 09:00-21:00", "phone": "+40 752 413396", "smoking": "no"}}, {"type": "node", "id": 13107664185, "lat": 45.8004991, "lon": 24.1502353, "tags": {"addr:city": "Sibiu", "addr:housenumber": "19", "addr:street": "Strada Ocnei", "amenity": "cafe", "cuisine": "breakfast", "name": "Eggcellent Brunch & Coffee", "opening_hours": "Mo-Su 08:00-16:00", "phone": "+40 786 488507", "smoking": "outside"}}, {"type": "node", "id": 13113034284, "lat": 45.7963894, "lon": 24.1509054, "tags": {"historic": "memorial", "image": "https://photos.app.goo.gl/keNk3Z7dVuqbekgB8", "memorial": "plaque", "name": "Emil Sigerus 1854-1947", "wikidata": "Q1336853", "wikipedia": "ro:Emil Sigerus"}}, {"type": "node", "id": 13113034285, "lat": 45.796558, "lon": 24.1507399, "tags": {"historic": "memorial", "image": "https://photos.app.goo.gl/MR3rSj1jemNqNAn88", "memorial": "plaque", "name": "PALATUL BRUKENTHAL"}}, {"type": "node", "id": 13113034286, "lat": 45.7966227, "lon": 24.1506543, "tags": {"historic": "memorial", "image": "https://photos.app.goo.gl/V6HzeLj3jDNDFivM7", "memorial": "plaque", "name": "\u00ceN DIMINEA\u0162A ZILEI DE 21.12.1989,"}}, {"type": "node", "id": 13113034294, "lat": 45.7969032, "lon": 24.1497604, "tags": {"addr:city": "Sibiu", "artwork_type": "bust", "image": "https://photos.app.goo.gl/zSp79MznKCeq8Q8S6", "name": "Iuliu Adrian Paul 1930-2009", "tourism": "artwork", "wikidata": "Q111729629", "wikipedia": "ro:Iuliu Paul"}}, {"type": "node", "id": 13113034295, "lat": 45.7969112, "lon": 24.1497424, "tags": {"addr:city": "Sibiu", "artwork_type": "bust", "image": "https://photos.app.goo.gl/FEFuC5MVr1CkuykS7", "name": "Iuliu Maniu 1873-1953", "tourism": "artwork", "wikidata": "Q462164", "wikipedia": "pl:Iuliu Maniu"}}, {"type": "node", "id": 13113034296, "lat": 45.7969174, "lon": 24.1497297, "tags": {"addr:city": "Sibiu", "artwork_type": "bust", "image": "https://photos.app.goo.gl/Wrj7J1HZ1HFSuwgt9", "name": "Thomas N\u00e4gler 1939-2011", "tourism": "artwork", "wikidata": "Q2426350", "wikipedia": "ro:Thomas N\u00e4gler"}}, {"type": "node", "id": 13113034297, "lat": 45.7970115, "lon": 24.1495017, "tags": {"addr:city": "Sibiu", "artwork_type": "bust", "image": "https://photos.app.goo.gl/z8EBwUQgHw7HYNc16", "name": "CAVALERUL HERMANN", "tourism": "artwork"}}, {"type": "node", "id": 13113034298, "lat": 45.7967707, "lon": 24.1492578, "tags": {"addr:city": "Sibiu", "artwork_type": "bust", "image": "https://photos.app.goo.gl/D6Juda8ATv7TzMv87", "name": "Avram Iancu 1824-1872", "tourism": "artwork", "wikidata": "Q720450", "wikipedia": "ro:Avram Iancu"}}, {"type": "node", "id": 13113034299, "lat": 45.7969777, "lon": 24.1492521, "tags": {"addr:city": "Sibiu", "artist_name": "Costina Ioni\u021b\u0103", "artwork_type": "sculpture", "image": "https://photos.app.goo.gl/GV1MzfmN7H7bpcZ58", "name": "Hydra", "tourism": "artwork"}}, {"type": "node", "id": 13113052301, "lat": 45.7976142, "lon": 24.1520177, "tags": {"historic": "memorial", "image": "https://photos.app.goo.gl/4LaejbJFHRCrsgQE7", "memorial": "plaque", "website": "https://bcity.ro/48?qr"}}, {"type": "node", "id": 13113052302, "lat": 45.7951226, "lon": 24.1504636, "tags": {"historic": "memorial", "image": "https://photos.app.goo.gl/jCXFperp5V5mwFQj9", "memorial": "plaque", "name": "O cl\u0103dire din Sibiu care a servit drept sediu al Pre\u0219edintelui \u0219i al Ministerului de Interne al Consiliului Director al Transilvaniei \u00een perioada 1918-1919."}}, {"type": "node", "id": 13113171309, "lat": 45.7932752, "lon": 24.147319, "tags": {"addr:city": "Sibiu", "artwork_type": "bust", "image": "https://photos.app.goo.gl/n5dxsmiU9N8wYZfg6", "name": "Iacob Bologa 1817-1888", "tourism": "artwork", "wikidata": "Q22917077", "wikipedia": "ro:Iacob Bologa"}}, {"type": "node", "id": 13113171310, "lat": 45.7940048, "lon": 24.1462121, "tags": {"historic": "memorial", "memorial": "plaque", "name": "J\u00f3zef Baron"}}, {"type": "way", "id": 40405482, "nodes": [488616772, 488616775, 5848058139, 5848058138, 5860149909, 5848058140, 5848058137, 488633927, 488633935, 5848058133, 5848058134, 5848058135, 5848058136, 488616772], "tags": {"SIRUTA:code": "143469", "addr:city": "Sibiu", "addr:housenumber": "2", "addr:postcode": "550160", "addr:street": "Strada Cet\u0103\u021bii", "check_date": "2023-06-08", "codul_entit\u0103\u021bii_muzeale": "6966504.0", "description": "Natural Sciences - Botanics, Zoology;Geology", "description:ro": "A fost infiintat in 1895 de Societatea ardeleana de stiintele naturii (societate infiintata in 1849). A fost nationalizat in 1949, iar in 1957 a fost incorporat in Muzeul Brukenthal. in 1972, muzeul a fost restructurat intr-o conceptie moderna.", "fax": "0269/211.545", "fee": "yes", "museum": "natural_history", "name": "Muzeul de Istorie Natural\u0103", "name:en": "Natural History Museum", "opening_hours": "We-Su 10:00-18:00", "phone": "+40 369 101 782", "source": "INP", "source:link": "http://date.gov.ro/dataset/ghidul-muzeelor-din-romania", "start_date": "1895", "tourism": "museum", "website": "https://www.brukenthalmuseum.ro/sectoare/naturale", "wikidata": "Q12736106", "wikipedia": "ro:Muzeul de Istorie Natural\u0103 din Sibiu"}}, {"type": "way", "id": 40414624, "nodes": [488883008, 6924739158, 488883011, 585362271, 488883012, 1113743699, 1113721113, 4392032289, 4392034454, 4392032290, 587675992, 488883008], "tags": {"addr:city": "Sibiu", "addr:housenumber": "21", "addr:street": "Pia\u021ba Mic\u0103", "building": "house", "historic": "monument", "historic:civilization": "medieval", "image": "https://photos.app.goo.gl/J8u4wnjtiPBdXkCBA", "is_in:city": "Sibiu", "is_in:country": "Romania", "is_in:country_code": "RO", "is_in:county": "Sibiu", "name": "Muzeul Emil Sigerus - Casa Artelor - Hala M\u0103celarilor", "name:de": "Schatzk\u00e4stlein -Emil Sigerus Museum", "roof:shape": "gabled", "tourism": "attraction"}}, {"type": "way", "id": 95983927, "nodes": [1112066601, 1112067045, 1112066541, 1112067188, 1112066474, 1112067135, 1112066632, 1112066246, 1112066694, 1112066779, 1112066366, 1112066988, 1112066601], "tags": {"addr:city": "Sibiu", "addr:street": "Pia\u021ba Armelor", "building": "yes", "historic": "monument", "is_in:city": "Sibiu", "is_in:country": "Romania", "is_in:country_code": "RO", "is_in:county": "Sibiu", "name": "Cazarma Kempel - Arsenalul Vechi", "tourism": "attraction"}}, {"type": "way", "id": 96119414, "nodes": [1113696968, 1113697061, 1113696976, 1113697129, 1113697035, 1113696936, 5970723320, 5970723321, 5970723322, 5970723323, 5970723334, 5970723335, 5970723336, 5970723324, 5970723331, 5970723332, 5970723333, 5970723330, 5970723329, 5970723328, 5970723325, 5970723337, 5970723319, 5970723338, 5970723339, 5970723327, 5970723326, 1113696938, 1113696968], "tags": {"addr:city": "Sibiu", "amenity": "place_of_worship", "building": "church", "denomination": "orthodox_(ex_catholic)", "historic": "monument", "image": "https://photos.app.goo.gl/vMMJRqGFy2gFexxa7", "is_in:city": "Sibiu", "is_in:country": "Romania", "is_in:country_code": "RO", "is_in:county": "Sibiu", "name": "Biserica Azilului (1292)", "name:de": "Siechenhauskirche", "religion": "christian", "source": "http://patrimoniu.sibiu.ro/biserici/detail/35", "tourism": "attraction", "wikidata": "Q43111286"}}, {"type": "way", "id": 96127133, "nodes": [1113806580, 1113806640, 1113806659, 1113806669, 1113806629, 339275865, 1113806580], "tags": {"addr:city": "Sibiu", "addr:housenumber": "4", "addr:street": "Pia\u021ba Huet", "amenity": "cafe", "building": "yes", "check_date": "2025-08-27", "check_date:smoking": "2025-08-27", "indoor_seating": "yes", "name": "Cafe Wien", "opening_hours": "Mo 10:00-02:00; Tu-Su 09:00-02:00", "outdoor_seating": "yes", "phone": "+40269223223", "smoking": "outside", "website": "https://cafewien.ro/"}}, {"type": "way", "id": 96127140, "nodes": [7204270474, 7204270477, 7204270476, 7204270475, 7204270474], "tags": {"historic": "memorial", "image": "https://photos.app.goo.gl/XUPQikerEhT45bcu6", "memorial": "statue", "name": "Episcop Georg Daniel Teutsch", "wikipedia": "ro:Monumentul lui Georg Daniel Teutsch din Sibiu"}}, {"type": "way", "id": 163805579, "nodes": [1754818109, 1754818111, 1754818118, 1754818117, 1754818122, 4392276649, 4392276650, 4400951973, 4400951974, 4400951975, 4327989520, 4327989523, 1754818109], "tags": {"addr:city": "Sibiu", "addr:housenumber": "14", "addr:postcode": "550166", "addr:street": "Strada \u0218elarilor", "amenity": "place_of_worship", "building": "church", "denomination": "roman_catholic", "historic": "monument", "is_in:city": "Sibiu", "is_in:country": "Romania", "is_in:country_code": "RO", "is_in:county": "Sibiu", "name": "Biserica Franciscan\u0103", "name:de": "Franziskaner Klosterkirche", "name:en": "Franciscan convent church", "name:hu": "Assziszi Szent Ferenc-templom", "religion": "christian", "source": "http://patrimoniu.sibiu.ro/biserici/detail/27", "survey:date": "2023-05-19", "tourism": "attraction", "url:miserend": "http://miserend.hu/?templom=3141"}}, {"type": "way", "id": 163807108, "nodes": [4374229000, 4374229003, 4374218403, 4374218402, 4374218401, 4374218400, 4374218399, 4374218398, 1754848920, 4374218397, 1754848950, 1754848915, 1754848909, 4374229000], "tags": {"addr:city": "Sibiu", "addr:housenumber": "2", "addr:postcode": "550165", "addr:street": "Strada Filarmonicii", "amenity": "restaurant", "building": "commercial", "check_date": "2025-05-09", "cuisine": "coffee_shop;german;regional", "email": "office@hermania.sobis.ro", "is_in:city": "Sibiu", "is_in:country_code": "RO", "is_in:county": "Romania", "name": "Restaurant Hermania", "old_name": "Filarmonica Sibiu", "opening_hours": "Mo-Su 11:00-24:00", "opening_hours:kitchen": "Mo-Su 11:00-23:00", "outdoor_seating": "yes", "phone": "+40 755 055999", "smoking": "outside", "takeaway": "yes", "website": "https://www.hermania.sobis.ro/", "wheelchair": "no"}}]}